,SEARCHVAL,BLK_NO,ROAD_NAME,BUILDING,ADDRESS,POSTAL,X,Y,LATITUDE,LONGITUDE,LONGTITUDE,address
0,ABC BRICKWORKS MARKET & FOOD CENTRE,6,JALAN BUKIT MERAH,ABC BRICKWORKS MARKET & FOOD CENTRE,6 JALAN BUKIT MERAH ABC BRICKWORKS MARKET & FOOD CENTRE SINGAPORE 150006,150006,25196.8643863667,29922.5141526069,1.28688297261475,103.808131274161,103.808131274161,ABC Brickworks Market & Food Centre
0,GOLDEN MILE FOOD CENTRE,505,BEACH ROAD,GOLDEN MILE FOOD CENTRE,505 BEACH ROAD GOLDEN MILE FOOD CENTRE SINGAPORE 199583,199583,31400.9425575882,31720.3330156244,1.30314175320333,103.863877615334,103.863877615334,Golden Mile Food Centre
0,MARKET & HAWKER CENTRE (BLK 320 SHUNFU ROAD),320,SHUNFU ROAD,MARKET & HAWKER CENTRE (BLK 320 SHUNFU ROAD),320 SHUNFU ROAD MARKET & HAWKER CENTRE (BLK 320 SHUNFU ROAD) SINGAPORE 570320,570320,28413.2464859849,37123.6313303821,1.35200745401591,103.837031862103,103.837031862103,Blk 320 Shunfu Road
0,HONG LIM FOOD CENTRE AND MARKET,531A,UPPER CROSS STREET,HONG LIM FOOD CENTRE AND MARKET,531A UPPER CROSS STREET HONG LIM FOOD CENTRE AND MARKET SINGAPORE 051531,051531,29386.4890156155,29750.0976683833,1.28532379322674,103.845776735598,103.845776735598,Hong Lim Market & Food Centre
0,TANGLIN HALT MARKET,48A,TANGLIN HALT ROAD,TANGLIN HALT MARKET,48A TANGLIN HALT ROAD TANGLIN HALT MARKET SINGAPORE 148813,148813,24040.1990861287,31433.1024718955,1.30054407507427,103.797737980247,103.797737980247,Tanglin Halt Market
0,PCF SPARKLETOTS PRESCHOOL @ MOUNTBATTEN BLK 51 (KN),51,OLD AIRPORT ROAD,PCF SPARKLETOTS PRESCHOOL @ MOUNTBATTEN BLK 51 (KN),51 OLD AIRPORT ROAD PCF SPARKLETOTS PRESCHOOL @ MOUNTBATTEN BLK 51 (KN) SINGAPORE 390051,390051,33833.0903097549,32269.7166850865,1.30810982136012,103.885731681696,103.885731681696,Blk 51 Old Airport Road
0,PEOPLE'S PARK FOOD CENTRE,32,NEW MARKET ROAD,PEOPLE'S PARK FOOD CENTRE,32 NEW MARKET ROAD PEOPLE'S PARK FOOD CENTRE SINGAPORE 050032,050032,29029.3480861438,29712.0183655731,1.28497943108466,103.84256768083,103.84256768083,People's Park Food Centre
0,PEK KIO MARKET & FOOD CENTRE,41A,CAMBRIDGE ROAD,PEK KIO MARKET & FOOD CENTRE,41A CAMBRIDGE ROAD PEK KIO MARKET & FOOD CENTRE SINGAPORE 211041,211041,29882.4041102333,33156.6338657755,1.31613128029458,103.850232935162,103.850232935162,Pek Kio Market & Food Centre
0,ALBERT CENTRE MARKET & FOOD CENTRE,270,QUEEN STREET,ALBERT CENTRE MARKET & FOOD CENTRE,270 QUEEN STREET ALBERT CENTRE MARKET & FOOD CENTRE SINGAPORE 180270,180270,30325.2105163326,31483.6634436883,1.30100149635856,103.854211650138,103.854211650138,Market Street Food Centre
1,HONG LIM FOOD CENTRE AND MARKET,531A,UPPER CROSS STREET,HONG LIM FOOD CENTRE AND MARKET,531A UPPER CROSS STREET HONG LIM FOOD CENTRE AND MARKET SINGAPORE 051531,051531,29386.4890156155,29750.0976683833,1.28532379322674,103.845776735598,103.845776735598,Market Street Food Centre
2,TAMPINES ROUND MARKET AND FOOD CENTRE,137,TAMPINES STREET 11,TAMPINES ROUND MARKET AND FOOD CENTRE,137 TAMPINES STREET 11 TAMPINES ROUND MARKET AND FOOD CENTRE SINGAPORE 521137,521137,40387.6812971048,36390.3618204296,1.34537347373749,103.944629422828,103.944629422828,Market Street Food Centre
3,KOVAN HOUGANG MARKET AND FOOD CENTRE,209,HOUGANG STREET 21,KOVAN HOUGANG MARKET AND FOOD CENTRE,209 HOUGANG STREET 21 KOVAN HOUGANG MARKET AND FOOD CENTRE SINGAPORE 530209,530209,33868.9928905163,37906.1657976005,1.35908384091048,103.886055368064,103.886055368064,Market Street Food Centre
4,YUHUA VILLAGE MARKET AND FOOD CENTRE,254,JURONG EAST STREET 24,YUHUA VILLAGE MARKET AND FOOD CENTRE,254 JURONG EAST STREET 24 YUHUA VILLAGE MARKET AND FOOD CENTRE SINGAPORE 600254,600254,17362.9648318021,36181.8218899667,1.34348818520494,103.73773841183,103.73773841183,Market Street Food Centre
5,KAKI BUKIT 511 MARKET AND FOOD CENTRE,511,BEDOK NORTH STREET 3,KAKI BUKIT 511 MARKET AND FOOD CENTRE,511 BEDOK NORTH STREET 3 KAKI BUKIT 511 MARKET AND FOOD CENTRE SINGAPORE 460511,460511,38824.3551326348,35046.416730687,1.33321993297265,103.930581522776,103.930581522776,Market Street Food Centre
0,ADAM ROAD FOOD CENTRE,2,ADAM ROAD,ADAM ROAD FOOD CENTRE,2 ADAM ROAD ADAM ROAD FOOD CENTRE SINGAPORE 289876,289876,25870.3018411137,34035.8644314632,1.3240827139625,103.814182099841,103.814182099841,Adam Road Food Centre
0,EAST COAST LAGOON FOOD VILLAGE,1220,EAST COAST PARKWAY,EAST COAST LAGOON FOOD VILLAGE,1220 EAST COAST PARKWAY EAST COAST LAGOON FOOD VILLAGE SINGAPORE 468960,468960,39293.9161662422,32176.0329168923,1.30726106591172,103.934799737098,103.934799737098,East Coast Lagoon Food Village
0,HOLLAND VILLAGE MARKET & FOOD CENTRE,1,LORONG MAMBONG,HOLLAND VILLAGE MARKET & FOOD CENTRE,1 LORONG MAMBONG HOLLAND VILLAGE MARKET & FOOD CENTRE SINGAPORE 277700,277700,23721.7508704271,32597.3388542421,1.31107297402127,103.794876419662,103.794876419662,Holland Village Market & Food Centre
0,KALLANG ESTATE FRESH MARKET AND FOOD CENTRE,17,OLD AIRPORT ROAD,KALLANG ESTATE FRESH MARKET AND FOOD CENTRE,17 OLD AIRPORT ROAD KALLANG ESTATE FRESH MARKET AND FOOD CENTRE SINGAPORE 397972,397972,33642.3416882437,32185.0303474627,1.30734398370473,103.884017699319,103.884017699319,Kallang Estate Market
0,MARKET & HAWKER CENTRE (BLK 93 TOA PAYOH LORONG 4),93,LORONG 4 TOA PAYOH,MARKET & HAWKER CENTRE (BLK 93 TOA PAYOH LORONG 4),93 LORONG 4 TOA PAYOH MARKET & HAWKER CENTRE (BLK 93 TOA PAYOH LORONG 4) SINGAPORE 310093,310093,29802.316084696,35627.2537689134,1.33847469611073,103.849513448853,103.849513448853,Blk 93 Toa Payoh Lorong 4
0,MARKET & HAWKER CENTRE (BLK 112 JALAN BUKIT MERAH),112,JALAN BUKIT MERAH,MARKET & HAWKER CENTRE (BLK 112 JALAN BUKIT MERAH),112 JALAN BUKIT MERAH MARKET & HAWKER CENTRE (BLK 112 JALAN BUKIT MERAH) SINGAPORE 160112,160112,27186.9811679078,29161.9488235991,1.28000480135122,103.82601329621,103.82601329621,Blk 112 Jalan Bukit Merah
0,CHINATOWN COMPLEX MARKET,335,SMITH STREET,CHINATOWN COMPLEX MARKET,335 SMITH STREET CHINATOWN COMPLEX MARKET SINGAPORE 050335,050335,29097.2327265413,29408.5769859292,1.28223521144332,103.843177640795,103.843177640795,Chinatown Market
0,BEDOK FOOD CENTRE,1,BEDOK ROAD,BEDOK FOOD CENTRE,1 BEDOK ROAD BEDOK FOOD CENTRE SINGAPORE 469572,469572,41595.4345044643,33623.132626934,1.32034716834128,103.955480570427,103.955480570427,Bedok Food Centre
0,MARKET & HAWKER CENTRE (BLK 505 JURONG WEST STREET 52),505,JURONG WEST STREET 52,MARKET & HAWKER CENTRE (BLK 505 JURONG WEST STREET 52),505 JURONG WEST STREET 52 MARKET & HAWKER CENTRE (BLK 505 JURONG WEST STREET 52) SINGAPORE 640505,640505,15215.6998569388,36864.06396823,1.34965729130746,103.718443677825,103.718443677825,Blk 505 Jurong West Street 52
0,NORTH BRIDGE ROAD MARKET,861,NORTH BRIDGE ROAD,NORTH BRIDGE ROAD MARKET,861 NORTH BRIDGE ROAD NORTH BRIDGE ROAD MARKET SINGAPORE 198783,198783,31404.4695041236,31995.9501274824,1.30563433652207,103.863909336656,103.863909336656,North Bridge Road Market & Food Centre
1,NORTH BRIDGE ROAD MARKET AND FOOD CENTRE,861,NORTH BRIDGE ROAD,NORTH BRIDGE ROAD MARKET AND FOOD CENTRE,861 NORTH BRIDGE ROAD NORTH BRIDGE ROAD MARKET AND FOOD CENTRE SINGAPORE 198783,198783,31425.6079072515,32051.9533432834,1.30614080746519,103.864099281276,103.864099281276,North Bridge Road Market & Food Centre
0,MARKET & HAWKER CENTRE (BLK 50A MARINE TERRACE),50A,MARINE TERRACE,MARKET & HAWKER CENTRE (BLK 50A MARINE TERRACE),50A MARINE TERRACE MARKET & HAWKER CENTRE (BLK 50A MARINE TERRACE) SINGAPORE 441050,441050,37172.4173270743,32006.62849053,1.30572973591916,103.915737035334,103.915737035334,Blk 50A Marine Terrace
0,MARKET & HAWKER CENTRE (BLK 4A EUNOS CRESCENT),4A,EUNOS CRESCENT,MARKET & HAWKER CENTRE (BLK 4A EUNOS CRESCENT),4A EUNOS CRESCENT MARKET & HAWKER CENTRE (BLK 4A EUNOS CRESCENT) SINGAPORE 402004,402004,35894.6902620094,33621.1522532944,1.32033126010096,103.904256478426,103.904256478426,Blk 4A Eunos Crescent
0,TEKKA MARKET,665,BUFFALO ROAD,TEKKA MARKET,665 BUFFALO ROAD TEKKA MARKET SINGAPORE 210665,210665,29924.521525288,32055.9468707871,1.30617705325622,103.85061131325,103.85061131325,Tekka Market
0,KOVAN HOUGANG MARKET AND FOOD CENTRE,209,HOUGANG STREET 21,KOVAN HOUGANG MARKET AND FOOD CENTRE,209 HOUGANG STREET 21 KOVAN HOUGANG MARKET AND FOOD CENTRE SINGAPORE 530209,530209,33868.9928905163,37906.1657976005,1.35908384091048,103.886055368064,103.886055368064,Kovan Market & Food Centre
0,MARKET & HAWKER CENTRE (BLK 6 TANJONG PAGAR PLAZA),6,TANJONG PAGAR PLAZA,MARKET & HAWKER CENTRE (BLK 6 TANJONG PAGAR PLAZA),6 TANJONG PAGAR PLAZA MARKET & HAWKER CENTRE (BLK 6 TANJONG PAGAR PLAZA) SINGAPORE 081006,081006,29096.0534556275,28787.0840827785,1.27661464758769,103.843167023188,103.843167023188,Blk 6 Tanjong Pagar Plaza
0,MAXWELL FOOD CENTRE,1,KADAYANALLUR STREET,MAXWELL FOOD CENTRE,1 KADAYANALLUR STREET MAXWELL FOOD CENTRE SINGAPORE 069184,069184,29271.9157984583,29198.0670940131,1.28033142727315,103.844747227479,103.844747227479,Maxwell Food Centre
0,GEYLANG SERAI MARKET,1,GEYLANG SERAI,GEYLANG SERAI MARKET,1 GEYLANG SERAI GEYLANG SERAI MARKET SINGAPORE 402001,402001,35195.9019180359,33222.3878217265,1.31672515005311,103.897977411392,103.897977411392,Geylang Serai Market
0,CHOMP CHOMP FOOD CENTRE,20,KENSINGTON PARK ROAD,CHOMP CHOMP FOOD CENTRE,20 KENSINGTON PARK ROAD CHOMP CHOMP FOOD CENTRE SINGAPORE 557269,557269,31695.7058338877,38475.4424637333,1.36423252476886,103.86652701738,103.86652701738,Chomp Chomp Food Centre
0,MARKET & HAWKER CENTRE (BLK 58 NEW UPPER CHANGI ROAD),58,NEW UPPER CHANGI ROAD,MARKET & HAWKER CENTRE (BLK 58 NEW UPPER CHANGI ROAD),58 NEW UPPER CHANGI ROAD MARKET & HAWKER CENTRE (BLK 58 NEW UPPER CHANGI ROAD) SINGAPORE 461058,461058,39997.8103255853,34049.1824351028,1.32420087334002,103.941125277547,103.941125277547,Blk 58 New Upper Changi Road
0,MARKET & HAWKER CENTRE (BLK 16 BEDOK SOUTH ROAD),16,BEDOK SOUTH ROAD,MARKET & HAWKER CENTRE (BLK 16 BEDOK SOUTH ROAD),16 BEDOK SOUTH ROAD MARKET & HAWKER CENTRE (BLK 16 BEDOK SOUTH ROAD) SINGAPORE 460016,460016,39368.8552748002,33640.0242200717,1.32050083785242,103.935473637292,103.935473637292,Blk 16 Bedok South Road
1,MARKET & HAWKER CENTRE (BLK 16 BEDOK SOUTH ROAD ),16,BEDOK SOUTH ROAD,MARKET & HAWKER CENTRE (BLK 16 BEDOK SOUTH ROAD ),16 BEDOK SOUTH ROAD MARKET & HAWKER CENTRE (BLK 16 BEDOK SOUTH ROAD ) SINGAPORE 460016,460016,39376.1483757449,33645.7060351707,1.32055221938711,103.935539171613,103.935539171613,Blk 16 Bedok South Road
0,MARKET & HAWKER CENTRE (BLK 726 CLEMENTI WEST STREET 2),726,CLEMENTI WEST STREET 2,MARKET & HAWKER CENTRE (BLK 726 CLEMENTI WEST STREET 2),726 CLEMENTI WEST STREET 2 MARKET & HAWKER CENTRE (BLK 726 CLEMENTI WEST STREET 2) SINGAPORE 120726,120726,20313.3796462538,31794.3900848683,1.30381073184127,103.764250748436,103.764250748436,Blk 726 Clementi West Street 2
0,HAWKER CENTRE (BLK 1 JALAN KUKOH),1,JALAN KUKOH,HAWKER CENTRE (BLK 1 JALAN KUKOH),1 JALAN KUKOH HAWKER CENTRE (BLK 1 JALAN KUKOH) SINGAPORE 161001,161001,28736.2590833632,30071.5608476754,1.2882310152805,103.839934168065,103.839934168065,Blk 1 Jalan Kukoh
0,ZION RIVERSIDE FOOD CENTRE,70,ZION ROAD,ZION RIVERSIDE FOOD CENTRE,70 ZION ROAD ZION RIVERSIDE FOOD CENTRE SINGAPORE 247792,247792,27762.9988469621,30526.1548476219,1.2923422114207,103.831189023623,103.831189023623,Zion Riverside Food Centre
0,MARKET & HAWKER CENTRE (BLK 724 ANG MO KIO AVE 6),724,ANG MO KIO AVENUE 6,MARKET & HAWKER CENTRE (BLK 724 ANG MO KIO AVE 6),724 ANG MO KIO AVENUE 6 MARKET & HAWKER CENTRE (BLK 724 ANG MO KIO AVE 6) SINGAPORE 560724,560724,29468.07854502,39353.3925121035,1.37217258545171,103.846510310202,103.846510310202,Blk 724 Ang Mo Kio Ave 6
0,PASIR PANJANG FOOD CENTRE,121,PASIR PANJANG ROAD,PASIR PANJANG FOOD CENTRE,121 PASIR PANJANG ROAD PASIR PANJANG FOOD CENTRE SINGAPORE 118543,118543,23336.0079675978,28710.0854800716,1.27591797439292,103.791410908656,103.791410908656,Pasir Panjang Food Centre
0,ALEXANDRA VILLAGE FOOD CENTRE,120,BUKIT MERAH LANE 1,ALEXANDRA VILLAGE FOOD CENTRE,120 BUKIT MERAH LANE 1 ALEXANDRA VILLAGE FOOD CENTRE SINGAPORE 150120,150120,24791.9139356269,29858.7134501822,1.28630594274136,103.804492637648,103.804492637648,Alexandra Village Food Centre
0,MARKET & HAWKER CENTRE (BLK 115 BUKIT MERAH VIEW),115,BUKIT MERAH VIEW,MARKET & HAWKER CENTRE (BLK 115 BUKIT MERAH VIEW),115 BUKIT MERAH VIEW MARKET & HAWKER CENTRE (BLK 115 BUKIT MERAH VIEW) SINGAPORE 151115,151115,26720.6663755551,29770.0739020091,1.28550445567433,103.821823256087,103.821823256087,Blk 115 Bukit Merah View
0,DUNMAN FOOD CENTRE,271,ONAN ROAD,DUNMAN FOOD CENTRE,271 ONAN ROAD DUNMAN FOOD CENTRE SINGAPORE 424768,424768,35624.1690376205,32414.3991606534,1.30941788760759,103.901825408227,103.901825408227,Dunman Food Centre
0,SEMBAWANG HILLS FOOD CENTRE,590,UPPER THOMSON ROAD,SEMBAWANG HILLS FOOD CENTRE,590 UPPER THOMSON ROAD SEMBAWANG HILLS FOOD CENTRE SINGAPORE 574419,574419,27521.4142992953,39369.6331922505,1.37231949296183,103.829018145089,103.829018145089,Sembawang Hill Food Centre
0,MARKET & HAWKER CENTRE (BLK 11 TELOK BLANGAH CRESCENT),11,TELOK BLANGAH CRESCENT,MARKET & HAWKER CENTRE (BLK 11 TELOK BLANGAH CRESCENT),11 TELOK BLANGAH CRESCENT MARKET & HAWKER CENTRE (BLK 11 TELOK BLANGAH CRESCENT) SINGAPORE 090011,090011,26367.6739153955,28870.403094504,1.27736813225761,103.818651524334,103.818651524334,Blk 11 Telok Blangah Crescent
0,MARKET & HAWKER CENTRE (BLKS 13/14 HAIG ROAD),13,HAIG ROAD,MARKET & HAWKER CENTRE (BLKS 13/14 HAIG ROAD),13 HAIG ROAD MARKET & HAWKER CENTRE (BLKS 13/14 HAIG ROAD) SINGAPORE 430013,430013,34932.3854920464,33047.3299110997,1.31514204972284,103.895609544204,103.895609544204,Blks 13/14 Haig Road
0,MARKET & HAWKER CENTRE (BLK 210 TOA PAYOH LORONG 8),210,LORONG 8 TOA PAYOH,MARKET & HAWKER CENTRE (BLK 210 TOA PAYOH LORONG 8),210 LORONG 8 TOA PAYOH MARKET & HAWKER CENTRE (BLK 210 TOA PAYOH LORONG 8) SINGAPORE 310210,310210,30345.6633798974,35824.7833570838,1.3402610461881,103.854395758866,103.854395758866,Blk 210 Toa Payoh Lorong 8
1,BLK 210 LORONG 8 TOA PAYOH MARKET & FOOD CENTRE,210,LORONG 8 TOA PAYOH,BLK 210 LORONG 8 TOA PAYOH MARKET & FOOD CENTRE,210 LORONG 8 TOA PAYOH BLK 210 LORONG 8 TOA PAYOH MARKET & FOOD CENTRE SINGAPORE 310210,310210,30398.7267572442,35819.8037894741,1.34021600857625,103.85487256444,103.85487256444,Blk 210 Toa Payoh Lorong 8
2,MARKET & HAWKER CENTRE (BLK 210 TOA PAYOH LORONG 8 ),210,LORONG 8 TOA PAYOH,MARKET & HAWKER CENTRE (BLK 210 TOA PAYOH LORONG 8 ),210 LORONG 8 TOA PAYOH MARKET & HAWKER CENTRE (BLK 210 TOA PAYOH LORONG 8 ) SINGAPORE 310210,310210,30338.771753489,35823.7928675842,1.34025208908831,103.854333833433,103.854333833433,Blk 210 Toa Payoh Lorong 8
0,MARKET & HAWKER CENTRE (BLK 538 BEDOK NORTH STREET 3),538,BEDOK NORTH STREET 3,MARKET & HAWKER CENTRE (BLK 538 BEDOK NORTH STREET 3),538 BEDOK NORTH STREET 3 MARKET & HAWKER CENTRE (BLK 538 BEDOK NORTH STREET 3) SINGAPORE 460538,460538,38161.0500670448,34918.9363977704,1.3320672771228,103.924621314971,103.924621314971,Blk 538 Bedok North Street 3
0,HAWKER CENTRE (BLK 75 TOA PAYOH LORONG 5),75,LORONG 5 TOA PAYOH,HAWKER CENTRE (BLK 75 TOA PAYOH LORONG 5),75 LORONG 5 TOA PAYOH HAWKER CENTRE (BLK 75 TOA PAYOH LORONG 5) SINGAPORE 310075,310075,30185.5474107722,35355.9137047604,1.336020767662,103.852956988062,103.852956988062,Blk 75 Toa Payoh Lorong 5
0,ALBERT CENTRE MARKET & FOOD CENTRE,270,QUEEN STREET,ALBERT CENTRE MARKET & FOOD CENTRE,270 QUEEN STREET ALBERT CENTRE MARKET & FOOD CENTRE SINGAPORE 180270,180270,30325.2105163326,31483.6634436883,1.30100149635856,103.854211650138,103.854211650138,Albert Centre Market & Food Centre
0,MARKET & HAWKER CENTRE (BLKS 2 & 3 CHANGI VILLAGE ROAD),3,CHANGI VILLAGE ROAD,MARKET & HAWKER CENTRE (BLKS 2 & 3 CHANGI VILLAGE ROAD),3 CHANGI VILLAGE ROAD MARKET & HAWKER CENTRE (BLKS 2 & 3 CHANGI VILLAGE ROAD) SINGAPORE 500003,500003,45224.2667044876,41287.4388223831,1.38965834308064,103.988091826679,103.988091826679,Blks 2 & 3 Changi Village Road
1,MARKET & HAWKER CENTRE (BLKS 2 & 3 CHANGI VILLAGE ROAD),2,CHANGI VILLAGE ROAD,MARKET & HAWKER CENTRE (BLKS 2 & 3 CHANGI VILLAGE ROAD),2 CHANGI VILLAGE ROAD MARKET & HAWKER CENTRE (BLKS 2 & 3 CHANGI VILLAGE ROAD) SINGAPORE 500002,500002,45241.3429928618,41231.413480686,1.38915166172556,103.988245236848,103.988245236848,Blks 2 & 3 Changi Village Road
0,MARKET & HAWKER CENTRE (BLK 353 CLEMENTI AVE 2),353,CLEMENTI AVENUE 2,MARKET & HAWKER CENTRE (BLK 353 CLEMENTI AVE 2),353 CLEMENTI AVENUE 2 MARKET & HAWKER CENTRE (BLK 353 CLEMENTI AVE 2) SINGAPORE 120353,120353,21055.5871404577,32962.9760067426,1.31437917978956,103.770919561136,103.770919561136,Blk 353 Clementi Ave 2
0,MARKET & HAWKER CENTRE (BLKS 20/21 MARSILING LANE),21,MARSILING LANE,MARKET & HAWKER CENTRE (BLKS 20/21 MARSILING LANE),21 MARSILING LANE MARKET & HAWKER CENTRE (BLKS 20/21 MARSILING LANE) SINGAPORE 730021,730021,21756.0331105599,47277.1630374882,1.44383165244262,103.777210383669,103.777210383669,Blks 20/21 Marsiling Lane
1,MARKET & HAWKER CENTRE (BLKS 20/21 MARSILING LANE),20,MARSILING LANE,MARKET & HAWKER CENTRE (BLKS 20/21 MARSILING LANE),20 MARSILING LANE MARKET & HAWKER CENTRE (BLKS 20/21 MARSILING LANE) SINGAPORE 730020,730020,21731.448667217,47234.3175260853,1.44344416787521,103.776989477833,103.776989477833,Blks 20/21 Marsiling Lane
0,MARKET & HAWKER CENTRE (BLK 117 ALJUNIED AVE 2),117,ALJUNIED AVENUE 2,MARKET & HAWKER CENTRE (BLK 117 ALJUNIED AVE 2),117 ALJUNIED AVENUE 2 MARKET & HAWKER CENTRE (BLK 117 ALJUNIED AVE 2) SINGAPORE 380117,380117,33976.8991302401,33655.9472074602,1.32064636781982,103.88702414,103.88702414,Blk 117 Aljunied Ave 2
0,MARKET & HAWKER CENTRE (BLK 448 CLEMENTI AVENUE 3),448,CLEMENTI AVENUE 3,MARKET & HAWKER CENTRE (BLK 448 CLEMENTI AVENUE 3),448 CLEMENTI AVENUE 3 MARKET & HAWKER CENTRE (BLK 448 CLEMENTI AVENUE 3) SINGAPORE 120448,120448,20343.061339126,32845.8420576267,1.31331969319644,103.764517192874,103.764517192874,Blk 448 Clementi Ave 3
0,HAWKER CENTRE (BLKS 79/79A CIRCUIT ROAD),79A,CIRCUIT ROAD,HAWKER CENTRE (BLKS 79/79A CIRCUIT ROAD),79A CIRCUIT ROAD HAWKER CENTRE (BLKS 79/79A CIRCUIT ROAD) SINGAPORE 371079,371079,33742.6925852122,34193.3920339625,1.32550687163075,103.884919772828,103.884919772828,Blks 79/79A Circuit Road
1,HAWKER CENTRE (BLKS 79/79A CIRCUIT ROAD),79,CIRCUIT ROAD,HAWKER CENTRE (BLKS 79/79A CIRCUIT ROAD),79 CIRCUIT ROAD HAWKER CENTRE (BLKS 79/79A CIRCUIT ROAD) SINGAPORE 370079,370079,33757.4374216041,34313.9406353924,1.3265970672963,103.885052285736,103.885052285736,Blks 79/79A Circuit Road
0,COMMONWEALTH CRESCENT MARKET,31,COMMONWEALTH CRESCENT,COMMONWEALTH CRESCENT MARKET,31 COMMONWEALTH CRESCENT COMMONWEALTH CRESCENT MARKET SINGAPORE 149644,149644,24332.8247768823,32135.9186672661,1.30690013206335,103.800367271218,103.800367271218,Commonwealth Crescent Market
0,TIONG BAHRU MARKET,30,SENG POH ROAD,TIONG BAHRU MARKET,30 SENG POH ROAD TIONG BAHRU MARKET SINGAPORE 168898,168898,27873.4577370929,29690.5834875423,1.28478559810371,103.832181546885,103.832181546885,Tiong Bahru Market
0,MARKET & HAWKER CENTRE (BLK 409 ANG MO KIO AVE 10),409,ANG MO KIO AVENUE 10,MARKET & HAWKER CENTRE (BLK 409 ANG MO KIO AVE 10),409 ANG MO KIO AVENUE 10 MARKET & HAWKER CENTRE (BLK 409 ANG MO KIO AVE 10) SINGAPORE 560409,560409,30444.9709697347,38300.8947805073,1.36265410749321,103.855288297631,103.855288297631,Blk 409 Ang Mo Kio Ave 10
0,BUKIT TIMAH MARKET,51,UPPER BUKIT TIMAH ROAD,BUKIT TIMAH MARKET,51 UPPER BUKIT TIMAH ROAD BUKIT TIMAH MARKET SINGAPORE 588215,588215,21621.868910674,35735.4350840729,1.33945242854685,103.776007306701,103.776007306701,Bukit Timah Market
0,MARKET & HAWKER CENTRE (BLK 216 BEDOK NORTH STREET 1),216,BEDOK NORTH STREET 1,MARKET & HAWKER CENTRE (BLK 216 BEDOK NORTH STREET 1),216 BEDOK NORTH STREET 1 MARKET & HAWKER CENTRE (BLK 216 BEDOK NORTH STREET 1) SINGAPORE 460216,460216,39117.7922474965,34365.5968239084,1.32706274205746,103.933217970746,103.933217970746,Blk 216 Bedok North Street 1
0,SERANGOON GARDEN MARKET,49A,SERANGOON GARDEN WAY,SERANGOON GARDEN MARKET,49A SERANGOON GARDEN WAY SERANGOON GARDEN MARKET SINGAPORE 555945,555945,31717.7350540459,38348.5565334801,1.36308501111104,103.866724949118,103.866724949118,Serangoon Garden Market
0,TAMAN JURONG MARKET & FOOD CENTRE,3,YUNG SHENG ROAD,TAMAN JURONG MARKET & FOOD CENTRE,3 YUNG SHENG ROAD TAMAN JURONG MARKET & FOOD CENTRE SINGAPORE 618499,618499,15565.0852814792,35212.4731548335,1.3347210661928,103.721583797451,103.721583797451,Taman Jurong Market & Food Centre
0,HAWKER CENTRE (BLK 208B NEW UPPER CHANGI ROAD),208B,NEW UPPER CHANGI ROAD,HAWKER CENTRE (BLK 208B NEW UPPER CHANGI ROAD),208B NEW UPPER CHANGI ROAD HAWKER CENTRE (BLK 208B NEW UPPER CHANGI ROAD) SINGAPORE 462208,462208,38823.1433841754,34113.4328592326,1.32478236985627,103.930570304559,103.930570304559,Blk 208B New Upper Changi Road
0,CHONG PANG MARKET & FOOD CENTRE,104,YISHUN RING ROAD,CHONG PANG MARKET & FOOD CENTRE,104 YISHUN RING ROAD CHONG PANG MARKET & FOOD CENTRE SINGAPORE 760104,760104,27467.956893337,45907.7369969934,1.43144775158984,103.828537671885,103.828537671885,Chong Pang Market & Food Centre
1,CHONG PANG MARKET & FOOD CENTRE,105,YISHUN RING ROAD,CHONG PANG MARKET & FOOD CENTRE,105 YISHUN RING ROAD CHONG PANG MARKET & FOOD CENTRE SINGAPORE 760105,760105,27420.8372399528,45937.6603494491,1.43171836662838,103.828114256975,103.828114256975,Chong Pang Market & Food Centre
0,BEO CRESCENT MARKET,38A,BEO CRESCENT,BEO CRESCENT MARKET,38A BEO CRESCENT BEO CRESCENT MARKET SINGAPORE 169982,169982,27336.1809281698,30137.891893005,1.28883089150258,103.827353892228,103.827353892228,Beo Crescent Market
0,AMOY STREET FOOD CENTRE,7,MAXWELL ROAD,AMOY STREET FOOD CENTRE,7 MAXWELL ROAD AMOY STREET FOOD CENTRE SINGAPORE 069111,069111,29483.955767219,29088.4261356071,1.2793398636571,103.846652482254,103.846652482254,Amoy Street Food Centre
0,MARKET & HAWKER CENTRE (BLK 20 GHIM MOH ROAD),20,GHIM MOH ROAD,MARKET & HAWKER CENTRE (BLK 20 GHIM MOH ROAD),20 GHIM MOH ROAD MARKET & HAWKER CENTRE (BLK 20 GHIM MOH ROAD) SINGAPORE 270020,270020,22982.1009905785,32588.9097050633,1.31099663218896,103.78823030662,103.78823030662,Blk 20 Ghim Moh Road
0,MARKET & HAWKER CENTRE (BLK 89 CIRCUIT ROAD),89,CIRCUIT ROAD,MARKET & HAWKER CENTRE (BLK 89 CIRCUIT ROAD),89 CIRCUIT ROAD MARKET & HAWKER CENTRE (BLK 89 CIRCUIT ROAD) SINGAPORE 370089,370089,33800.4642987661,33980.2979524005,1.32357971400582,103.885438842474,103.885438842474,Blk 89 Circuit Road
0,NEWTON FOOD CENTRE,500,CLEMENCEAU AVENUE NORTH,NEWTON FOOD CENTRE,500 CLEMENCEAU AVENUE NORTH NEWTON FOOD CENTRE SINGAPORE 229495,229495,28695.6935986374,32690.4712911118,1.31191552031274,103.839569728721,103.839569728721,Newton Food Centre
0,BERSEH FOOD CENTRE,166,JALAN BESAR,BERSEH FOOD CENTRE,166 JALAN BESAR BERSEH FOOD CENTRE SINGAPORE 208877,208877,30623.1448179465,32184.9996254593,1.30734410946371,103.856888783769,103.856888783769,Berseh Food Centre
