,SEARCHVAL,BLK_NO,ROAD_NAME,BUILDING,ADDRESS,POSTAL,X,Y,LATITUDE,LONGITUDE,LONGTITUDE,address
0,KRANJI PRIMARY SCHOOL,11,CHOA CHU KANG STREET 54,KRANJI PRIMARY SCHOOL,11 CHOA CHU KANG STREET 54 KRANJI PRIMARY SCHOOL SINGAPORE 689189,689189,18434.245239621,41718.5305804759,1.39356050497104,103.747362720939,103.747362720939,Kranji Primary School
0,FIRST TOA PAYOH PRIMARY SCHOOL,7,LORONG 8 TOA PAYOH,FIRST TOA PAYOH PRIMARY SCHOOL,7 LORONG 8 TOA PAYOH FIRST TOA PAYOH PRIMARY SCHOOL SINGAPORE 319252,319252,30471.8817195026,35831.634454662,1.34032299499938,103.855529906182,103.855529906182,First Toa Payoh Primary School
0,JIEMIN PRIMARY SCHOOL,2,YISHUN STREET 71,JIEMIN PRIMARY SCHOOL,2 YISHUN STREET 71 JIEMIN PRIMARY SCHOOL SINGAPORE 768515,768515,27678.0421859771,45492.0549418237,1.42768847665227,103.830425490093,103.830425490093,Jiemin Primary School
0,FAIRFIELD METHODIST SCHOOL (PRIMARY),100,DOVER ROAD,FAIRFIELD METHODIST SCHOOL (PRIMARY),100 DOVER ROAD FAIRFIELD METHODIST SCHOOL (PRIMARY) SINGAPORE 139648,139648,22671.3515878748,31432.7656800412,1.30054082453424,103.785438270044,103.785438270044,Fairfield Methodist School (Primary)
0,ZHENGHUA PRIMARY SCHOOL,9,FAJAR ROAD,ZHENGHUA PRIMARY SCHOOL,9 FAJAR ROAD ZHENGHUA PRIMARY SCHOOL SINGAPORE 679002,679002,20877.0395431835,40169.1169131137,1.37954887512229,103.769313521752,103.769313521752,Zhenghua Primary School
0,HUAMIN PRIMARY SCHOOL,21,YISHUN AVENUE 11,HUAMIN PRIMARY SCHOOL,21 YISHUN AVENUE 11 HUAMIN PRIMARY SCHOOL SINGAPORE 768857,768857,29215.4177919272,45412.9266837817,1.42697284512936,103.844240226564,103.844240226564,Huamin Primary School
0,QUEENSTOWN PRIMARY SCHOOL,310,MARGARET DRIVE,QUEENSTOWN PRIMARY SCHOOL,310 MARGARET DRIVE QUEENSTOWN PRIMARY SCHOOL SINGAPORE 149303,149303,25132.029336133,30885.6966638304,1.29559365009015,103.807548617332,103.807548617332,Queenstown Primary School
0,CHIJ (KATONG) PRIMARY,17,MARTIA ROAD,CHIJ (KATONG) PRIMARY,17 MARTIA ROAD CHIJ (KATONG) PRIMARY SINGAPORE 424821,424821,36656.9804726057,32090.1643723603,1.30648535277087,103.911105620496,103.911105620496,CHIJ (Katong) Primary
0,CHIJ OUR LADY OF THE NATIVITY,1257,UPPER SERANGOON ROAD,CHIJ OUR LADY OF THE NATIVITY,1257 UPPER SERANGOON ROAD CHIJ OUR LADY OF THE NATIVITY SINGAPORE 534793,534793,35151.0338091562,39478.4768616967,1.37330297140128,103.897575728303,103.897575728303,CHIJ Our Lady of the Nativity
0,MEE TOH SCHOOL,21,EDGEDALE PLAINS,MEE TOH SCHOOL,21 EDGEDALE PLAINS MEE TOH SCHOOL SINGAPORE 828867,828867,36376.6569616906,41835.4725095034,1.3946184538592,103.908589494228,103.908589494228,Mee Toh School
0,FUCHUN PRIMARY SCHOOL,23,WOODLANDS AVENUE 1,FUCHUN PRIMARY SCHOOL,23 WOODLANDS AVENUE 1 FUCHUN PRIMARY SCHOOL SINGAPORE 739063,739063,21865.3411816815,45800.7908879817,1.43047990810126,103.778192944298,103.778192944298,Fuchun Primary School
0,HOLY INNOCENTS' PRIMARY SCHOOL,5,LORONG LOW KOON,HOLY INNOCENTS' PRIMARY SCHOOL,5 LORONG LOW KOON HOLY INNOCENTS' PRIMARY SCHOOL SINGAPORE 536451,536451,34765.9036816582,38774.6943912152,1.36693830877349,103.894114899795,103.894114899795,Holy Innocents' Primary School
0,PARK VIEW PRIMARY SCHOOL,60,PASIR RIS DRIVE 1,PARK VIEW PRIMARY SCHOOL,60 PASIR RIS DRIVE 1 PARK VIEW PRIMARY SCHOOL SINGAPORE 519524,519524,39821.3162899343,39929.5384668726,1.37738069854249,103.939541695654,103.939541695654,Park View Primary School
0,STAMFORD PRIMARY SCHOOL,1,VICTORIA LANE,STAMFORD PRIMARY SCHOOL,1 VICTORIA LANE STAMFORD PRIMARY SCHOOL SINGAPORE 198423,198423,30685.996679619,31755.1155901849,1.30345638467449,103.857453500579,103.857453500579,Stamford Primary School
0,XINGHUA PRIMARY SCHOOL,45,HOUGANG AVENUE 1,XINGHUA PRIMARY SCHOOL,45 HOUGANG AVENUE 1 XINGHUA PRIMARY SCHOOL SINGAPORE 538882,538882,34360.61483486,37776.2619072273,1.35790893589535,103.890472887906,103.890472887906,Xinghua Primary School
0,HORIZON PRIMARY SCHOOL,61,EDGEDALE PLAINS,HORIZON PRIMARY SCHOOL,61 EDGEDALE PLAINS HORIZON PRIMARY SCHOOL SINGAPORE 828819,828819,36912.5247354358,42380.7999361996,1.399550034492,103.913404855665,103.913404855665,Horizon Primary School
0,WOODLANDS RING PRIMARY SCHOOL,11,WOODLANDS RING ROAD,WOODLANDS RING PRIMARY SCHOOL,11 WOODLANDS RING ROAD WOODLANDS RING PRIMARY SCHOOL SINGAPORE 738240,738240,24006.7839585366,46295.2823582534,1.43495229315857,103.797435733144,103.797435733144,Woodlands Ring Primary School
0,GONGSHANG PRIMARY SCHOOL,1,TAMPINES STREET 42,GONGSHANG PRIMARY SCHOOL,1 TAMPINES STREET 42 GONGSHANG PRIMARY SCHOOL SINGAPORE 529176,529176,40886.8508355999,37702.2195482217,1.35723721393297,103.949115320172,103.949115320172,Gongshang Primary School
0,FARRER PARK PRIMARY SCHOOL,2,FARRER PARK ROAD,FARRER PARK PRIMARY SCHOOL,2 FARRER PARK ROAD FARRER PARK PRIMARY SCHOOL SINGAPORE 217567,217567,29941.750091888,32740.5730673242,1.31236856978581,103.850766162813,103.850766162813,Farrer Park Primary School
0,SENGKANG GREEN PRIMARY SCHOOL,15,FERNVALE ROAD,SENGKANG GREEN PRIMARY SCHOOL,15 FERNVALE ROAD SENGKANG GREEN PRIMARY SCHOOL SINGAPORE 797636,797636,32662.8166451091,41639.3984784018,1.39284606680477,103.875217666486,103.875217666486,Sengkang Green Primary School
0,SHUQUN PRIMARY SCHOOL,8,JURONG WEST STREET 51,SHUQUN PRIMARY SCHOOL,8 JURONG WEST STREET 51 SHUQUN PRIMARY SCHOOL SINGAPORE 649332,649332,15558.4638573611,36642.4359194618,1.34765311431632,103.721523713379,103.721523713379,Shuqun Primary School
0,LIANHUA PRIMARY SCHOOL,2,BUKIT BATOK STREET 52,LIANHUA PRIMARY SCHOOL,2 BUKIT BATOK STREET 52 LIANHUA PRIMARY SCHOOL SINGAPORE 659243,659243,19191.1979939695,37370.8497486636,1.35424191127295,103.754165828711,103.754165828711,Lianhua Primary School
0,TECK WHYE PRIMARY SCHOOL,11,TECK WHYE WALK,TECK WHYE PRIMARY SCHOOL,11 TECK WHYE WALK TECK WHYE PRIMARY SCHOOL SINGAPORE 688261,688261,19094.0433355458,40622.6493846048,1.38364996834457,103.753291857016,103.753291857016,Teck Whye Primary School
0,WESTWOOD PRIMARY SCHOOL,1,JURONG WEST STREET 73,WESTWOOD PRIMARY SCHOOL,1 JURONG WEST STREET 73 WESTWOOD PRIMARY SCHOOL SINGAPORE 649188,649188,13222.5567915821,36590.7433790993,1.34718456606375,103.70053420978,103.70053420978,Westwood Primary School
0,YU NENG PRIMARY SCHOOL,56,BEDOK NORTH STREET 3,YU NENG PRIMARY SCHOOL,56 BEDOK NORTH STREET 3 YU NENG PRIMARY SCHOOL SINGAPORE 469623,469623,38998.3352306299,35120.4393246993,1.33388930344069,103.932144857355,103.932144857355,Yu Neng Primary School
0,PIONEER PRIMARY SCHOOL,23,JURONG WEST STREET 81,PIONEER PRIMARY SCHOOL,23 JURONG WEST STREET 81 PIONEER PRIMARY SCHOOL SINGAPORE 649076,649076,12607.0934523959,36773.4045769684,1.34883617453427,103.695003812477,103.695003812477,Pioneer Primary School
0,JURONG PRIMARY SCHOOL,320,JURONG EAST STREET 32,JURONG PRIMARY SCHOOL,320 JURONG EAST STREET 32 JURONG PRIMARY SCHOOL SINGAPORE 609476,609476,16853.0771883978,36747.1039994843,1.34860020316068,103.733156560251,103.733156560251,Jurong Primary School
0,ENDEAVOUR PRIMARY SCHOOL,10,ADMIRALTY LINK,ENDEAVOUR PRIMARY SCHOOL,10 ADMIRALTY LINK ENDEAVOUR PRIMARY SCHOOL SINGAPORE 757521,757521,26232.5507349819,48405.7003912628,1.45403837499301,103.817436231731,103.817436231731,Endeavour Primary School
0,WEST GROVE PRIMARY SCHOOL,1,JURONG WEST STREET 72,WEST GROVE PRIMARY SCHOOL,1 JURONG WEST STREET 72 WEST GROVE PRIMARY SCHOOL SINGAPORE 649223,649223,13083.6706046276,36335.8187624309,1.3448790560014,103.699286360581,103.699286360581,West Grove Primary School
0,OPERA ESTATE PRIMARY SCHOOL,48,FIDELIO STREET,OPERA ESTATE PRIMARY SCHOOL,48 FIDELIO STREET OPERA ESTATE PRIMARY SCHOOL SINGAPORE 458436,458436,38068.3909911709,33509.3080883529,1.31931914436255,103.923788259248,103.923788259248,Opera Estate Primary School
0,TELOK KURAU PRIMARY SCHOOL,50,BEDOK RESERVOIR ROAD,TELOK KURAU PRIMARY SCHOOL,50 BEDOK RESERVOIR ROAD TELOK KURAU PRIMARY SCHOOL SINGAPORE 479239,479239,36637.797290422,34805.9404149763,1.33104585441349,103.910934011337,103.910934011337,Telok Kurau Primary School
0,SPRINGDALE PRIMARY SCHOOL,71,ANCHORVALE LINK,SPRINGDALE PRIMARY SCHOOL,71 ANCHORVALE LINK SPRINGDALE PRIMARY SCHOOL SINGAPORE 544799,544799,34299.680692099,41841.1254489459,1.39467010299293,103.889926221247,103.889926221247,Springdale Primary School
0,PAYA LEBAR METHODIST GIRLS' SCHOOL (PRIMARY),298,LORONG AH SOO,PAYA LEBAR METHODIST GIRLS' SCHOOL (PRIMARY),298 LORONG AH SOO PAYA LEBAR METHODIST GIRLS' SCHOOL (PRIMARY) SINGAPORE 536741,536741,33748.3760953182,36843.4187818952,1.34947276268396,103.884971343143,103.884971343143,Paya Lebar Methodist Girls' School (Primary)
0,ANG MO KIO PRIMARY SCHOOL,20,ANG MO KIO AVENUE 3,ANG MO KIO PRIMARY SCHOOL,20 ANG MO KIO AVENUE 3 ANG MO KIO PRIMARY SCHOOL SINGAPORE 569920,569920,28702.4804675551,39038.1602696702,1.36932176584608,103.839630858752,103.839630858752,Ang Mo Kio Primary School
0,UNITY PRIMARY SCHOOL,21,CHOA CHU KANG CRESCENT,UNITY PRIMARY SCHOOL,21 CHOA CHU KANG CRESCENT UNITY PRIMARY SCHOOL SINGAPORE 688268,688268,18374.1775784306,42746.2521210518,1.40285481877246,103.746822625758,103.746822625758,Unity Primary School
0,MAYFLOWER PRIMARY SCHOOL (JAN 2019 - DEC 2021),6,ANG MO KIO AVENUE 2,MAYFLOWER PRIMARY SCHOOL (JAN 2019 - DEC 2021),6 ANG MO KIO AVENUE 2 MAYFLOWER PRIMARY SCHOOL (JAN 2019 - DEC 2021) SINGAPORE 569948,569948,28276.7353066411,39792.7725521773,1.37614621670476,103.835805246743,103.835805246743,Mayflower Primary School
1,MAYFLOWER PRIMARY SCHOOL (U/C),200,ANG MO KIO AVENUE 5,MAYFLOWER PRIMARY SCHOOL (U/C),200 ANG MO KIO AVENUE 5 MAYFLOWER PRIMARY SCHOOL (U/C) SINGAPORE 569878,569878,29105.5559377754,39818.2753564138,1.37637683547682,103.843252803742,103.843252803742,Mayflower Primary School
0,WATERWAY PRIMARY SCHOOL,70,PUNGGOL DRIVE,WATERWAY PRIMARY SCHOOL,70 PUNGGOL DRIVE WATERWAY PRIMARY SCHOOL SINGAPORE 828802,828802,37493.0794339096,42300.9820826855,1.39882800626578,103.918621581556,103.918621581556,Waterway Primary School
0,DAMAI PRIMARY SCHOOL,52,BEDOK RESERVOIR CRESCENT,DAMAI PRIMARY SCHOOL,52 BEDOK RESERVOIR CRESCENT DAMAI PRIMARY SCHOOL SINGAPORE 479226,479226,37788.0885467725,35294.1912929006,1.33546106800406,103.921270169613,103.921270169613,Damai Primary School
0,ANGLO-CHINESE SCHOOL (JUNIOR),16,WINSTEDT ROAD,ANGLO-CHINESE SCHOOL (JUNIOR),16 WINSTEDT ROAD ANGLO-CHINESE SCHOOL (JUNIOR) SINGAPORE 227988,227988,28849.8722303454,32406.9252690431,1.30935122626928,103.84095509189,103.84095509189,Anglo-Chinese School (Junior)
0,QIHUA PRIMARY SCHOOL,5,WOODLANDS STREET 81,QIHUA PRIMARY SCHOOL,5 WOODLANDS STREET 81 QIHUA PRIMARY SCHOOL SINGAPORE 738525,738525,22994.5551156951,47078.5774599016,1.4420359661233,103.788339756898,103.788339756898,Qihua Primary School
0,TANJONG KATONG PRIMARY SCHOOL,10,SERAYA ROAD,TANJONG KATONG PRIMARY SCHOOL,10 SERAYA ROAD TANJONG KATONG PRIMARY SCHOOL SINGAPORE 437259,437259,35431.3472408336,31952.5175080001,1.30524084264265,103.900092702031,103.900092702031,Tanjong Katong Primary School
0,CANBERRA PRIMARY SCHOOL,21,ADMIRALTY DRIVE,CANBERRA PRIMARY SCHOOL,21 ADMIRALTY DRIVE CANBERRA PRIMARY SCHOOL SINGAPORE 757714,757714,26054.855272253,48103.4229366649,1.45130467584562,103.815839476605,103.815839476605,Canberra Primary School
0,POI CHING SCHOOL,21,TAMPINES STREET 71,POI CHING SCHOOL,21 TAMPINES STREET 71 POI CHING SCHOOL SINGAPORE 529067,529067,39343.403805064,37747.9291978516,1.35765122315688,103.935246477199,103.935246477199,Poi Ching School
0,TECK GHEE PRIMARY SCHOOL,1,ANG MO KIO STREET 32,TECK GHEE PRIMARY SCHOOL,1 ANG MO KIO STREET 32 TECK GHEE PRIMARY SCHOOL SINGAPORE 569299,569299,29962.9602906732,38625.285902936,1.36558782075966,103.850957126982,103.850957126982,Teck Ghee Primary School
0,NORTH VIEW PRIMARY SCHOOL,210,YISHUN AVENUE 6,NORTH VIEW PRIMARY SCHOOL,210 YISHUN AVENUE 6 NORTH VIEW PRIMARY SCHOOL SINGAPORE 768960,768960,29655.0564113865,45473.7925722394,1.42752327193727,103.848190787869,103.848190787869,North View Primary School
0,SOUTH VIEW PRIMARY SCHOOL,6,CHOA CHU KANG CENTRAL,SOUTH VIEW PRIMARY SCHOOL,6 CHOA CHU KANG CENTRAL SOUTH VIEW PRIMARY SCHOOL SINGAPORE 689762,689762,18313.2418920035,40403.3706761971,1.38166664389749,103.746275846011,103.746275846011,South View Primary School
0,PRINCESS ELIZABETH PRIMARY SCHOOL,30,BUKIT BATOK WEST AVENUE 3,PRINCESS ELIZABETH PRIMARY SCHOOL,30 BUKIT BATOK WEST AVENUE 3 PRINCESS ELIZABETH PRIMARY SCHOOL SINGAPORE 659163,659163,17728.1546840398,36813.7803722396,1.349203512653,103.74101964471,103.74101964471,Princess Elizabeth Primary School
0,TAMPINES NORTH PRIMARY SCHOOL,30,TAMPINES AVENUE 9,TAMPINES NORTH PRIMARY SCHOOL,30 TAMPINES AVENUE 9 TAMPINES NORTH PRIMARY SCHOOL SINGAPORE 529565,529565,40843.482626386,38060.3925251346,1.36047641484682,103.948725782833,103.948725782833,Tampines North Primary School
0,MERIDIAN PRIMARY SCHOOL,20,PASIR RIS STREET 71,MERIDIAN PRIMARY SCHOOL,20 PASIR RIS STREET 71 MERIDIAN PRIMARY SCHOOL SINGAPORE 518798,518798,39303.5458344575,39724.6885971073,1.37552831658484,103.934889078518,103.934889078518,Meridian Primary School
0,KEMING PRIMARY SCHOOL,90,BUKIT BATOK EAST AVENUE 6,KEMING PRIMARY SCHOOL,90 BUKIT BATOK EAST AVENUE 6 KEMING PRIMARY SCHOOL SINGAPORE 659762,659762,19445.3031655131,36407.3561431039,1.34552849960874,103.756449399351,103.756449399351,Keming Primary School
0,PEI CHUN PUBLIC SCHOOL,16,LORONG 7 TOA PAYOH,PEI CHUN PUBLIC SCHOOL,16 LORONG 7 TOA PAYOH PEI CHUN PUBLIC SCHOOL SINGAPORE 319320,319320,30478.0803604238,35505.5040733535,1.33737358725951,103.855585578061,103.855585578061,Pei Chun Public School
0,DAZHONG PRIMARY SCHOOL,35,BUKIT BATOK STREET 31,DAZHONG PRIMARY SCHOOL,35 BUKIT BATOK STREET 31 DAZHONG PRIMARY SCHOOL SINGAPORE 659441,659441,18557.5702323942,37916.8722190689,1.3591797447277,103.74847210784,103.74847210784,Dazhong Primary School
0,CHONGFU SCHOOL,170,YISHUN AVENUE 6,CHONGFU SCHOOL,170 YISHUN AVENUE 6 CHONGFU SCHOOL SINGAPORE 768959,768959,28666.6613053558,46675.9986570273,1.43839562897006,103.839309173817,103.839309173817,Chongfu School
0,ANDERSON PRIMARY SCHOOL,19,ANG MO KIO AVENUE 9,ANDERSON PRIMARY SCHOOL,19 ANG MO KIO AVENUE 9 ANDERSON PRIMARY SCHOOL SINGAPORE 569785,569785,28898.4776482461,40690.4297215287,1.38426429436736,103.841392081119,103.841392081119,Anderson Primary School
0,PEI HWA PRESBYTERIAN PRIMARY SCHOOL,7,PEI WAH AVENUE,PEI HWA PRESBYTERIAN PRIMARY SCHOOL,7 PEI WAH AVENUE PEI HWA PRESBYTERIAN PRIMARY SCHOOL SINGAPORE 597610,597610,21632.898745548,35581.0631004851,1.33805634613048,103.776106448614,103.776106448614,Pei Hwa Presbyterian Primary School
0,PUNGGOL PRIMARY SCHOOL,61,HOUGANG AVENUE 8,PUNGGOL PRIMARY SCHOOL,61 HOUGANG AVENUE 8 PUNGGOL PRIMARY SCHOOL SINGAPORE 538787,538787,34809.5016854042,39975.1199013237,1.37779451191095,103.894506933668,103.894506933668,Punggol Primary School
0,ZHONGHUA PRIMARY SCHOOL,12,SERANGOON AVENUE 4,ZHONGHUA PRIMARY SCHOOL,12 SERANGOON AVENUE 4 ZHONGHUA PRIMARY SCHOOL SINGAPORE 556095,556095,32055.7766133798,38029.9161160812,1.36020329705047,103.869762438084,103.869762438084,Zhonghua Primary School
0,PALM VIEW PRIMARY SCHOOL,150,COMPASSVALE BOW,PALM VIEW PRIMARY SCHOOL,150 COMPASSVALE BOW PALM VIEW PRIMARY SCHOOL SINGAPORE 544822,544822,34458.6783197625,40635.7654705234,1.38376923022123,103.891354675017,103.891354675017,Palm View Primary School
0,WOODLANDS PRIMARY SCHOOL,10,WOODLANDS DRIVE 50,WOODLANDS PRIMARY SCHOOL,10 WOODLANDS DRIVE 50 WOODLANDS PRIMARY SCHOOL SINGAPORE 738853,738853,23354.0808293354,46472.0799515136,1.43655108594232,103.791570546509,103.791570546509,Woodlands Primary School
0,VALOUR PRIMARY SCHOOL,49,PUNGGOL CENTRAL,VALOUR PRIMARY SCHOOL,49 PUNGGOL CENTRAL VALOUR PRIMARY SCHOOL SINGAPORE 828728,828728,35318.1306347065,43186.3631934691,1.40683570215319,103.899078139493,103.899078139493,Valour Primary School
0,GREENWOOD PRIMARY SCHOOL,11,WOODLANDS DRIVE 62,GREENWOOD PRIMARY SCHOOL,11 WOODLANDS DRIVE 62 GREENWOOD PRIMARY SCHOOL SINGAPORE 737942,737942,24818.0410170276,46842.3174743224,1.43989958331782,103.804725587384,103.804725587384,Greenwood Primary School
0,WEST VIEW PRIMARY SCHOOL,31,SENJA ROAD,WEST VIEW PRIMARY SCHOOL,31 SENJA ROAD WEST VIEW PRIMARY SCHOOL SINGAPORE 677742,677742,19867.3321747258,40625.4829824362,1.3836758200336,103.760240434318,103.760240434318,West View Primary School
0,TAO NAN SCHOOL,49,MARINE CRESCENT,TAO NAN SCHOOL,49 MARINE CRESCENT TAO NAN SCHOOL SINGAPORE 449761,449761,36706.7907984024,31957.4686842412,1.30528528687321,103.911553152326,103.911553152326,Tao Nan School
0,EAST SPRING PRIMARY SCHOOL,31,TAMPINES STREET 33,EAST SPRING PRIMARY SCHOOL,31 TAMPINES STREET 33 EAST SPRING PRIMARY SCHOOL SINGAPORE 529258,529258,42284.8340225685,37198.8184850682,1.35268400746357,103.961676849165,103.961676849165,East Spring Primary School
0,CANTONMENT PRIMARY SCHOOL,1,CANTONMENT CLOSE,CANTONMENT PRIMARY SCHOOL,1 CANTONMENT CLOSE CANTONMENT PRIMARY SCHOOL SINGAPORE 088256,088256,28739.4305021614,28660.7930697445,1.27547252623201,103.839962631748,103.839962631748,Cantonment Primary School
0,CHIJ OUR LADY OF GOOD COUNSEL,2C,BURGHLEY DRIVE,CHIJ OUR LADY OF GOOD COUNSEL,2C BURGHLEY DRIVE CHIJ OUR LADY OF GOOD COUNSEL SINGAPORE 558979,558979,31415.5340866428,37723.1973494291,1.35742952269615,103.864009397373,103.864009397373,CHIJ Our Lady of Good Counsel
0,GREENDALE PRIMARY SCHOOL,50,EDGEDALE PLAINS,GREENDALE PRIMARY SCHOOL,50 EDGEDALE PLAINS GREENDALE PRIMARY SCHOOL SINGAPORE 828848,828848,36793.4333255449,42041.5424514245,1.39648195114256,103.91233462071,103.91233462071,Greendale Primary School
0,CHANGKAT PRIMARY SCHOOL,11,SIMEI STREET 3,CHANGKAT PRIMARY SCHOOL,11 SIMEI STREET 3 CHANGKAT PRIMARY SCHOOL SINGAPORE 529896,529896,41216.8906296864,35821.8419446945,1.34023163951633,103.952080114035,103.952080114035,Changkat Primary School
0,NAN CHIAU PRIMARY SCHOOL,50,ANCHORVALE LINK,NAN CHIAU PRIMARY SCHOOL,50 ANCHORVALE LINK NAN CHIAU PRIMARY SCHOOL SINGAPORE 545080,545080,34439.3196740765,41569.2687405795,1.39221149906592,103.891180928186,103.891180928186,Nan Chiau Primary School
0,RIVERSIDE PRIMARY SCHOOL,110,WOODLANDS CRESCENT,RIVERSIDE PRIMARY SCHOOL,110 WOODLANDS CRESCENT RIVERSIDE PRIMARY SCHOOL SINGAPORE 737803,737803,24496.0361921666,47632.6851746552,1.44704734253719,103.801831963297,103.801831963297,Riverside Primary School
0,BOON LAY GARDEN PRIMARY SCHOOL,20,BOON LAY DRIVE,BOON LAY GARDEN PRIMARY SCHOOL,20 BOON LAY DRIVE BOON LAY GARDEN PRIMARY SCHOOL SINGAPORE 649930,649930,14641.1027754331,36147.7026988044,1.34317853793318,103.713280889452,103.713280889452,Boon Lay Garden Primary School
0,PASIR RIS PRIMARY SCHOOL,5,PASIR RIS STREET 21,PASIR RIS PRIMARY SCHOOL,5 PASIR RIS STREET 21 PASIR RIS PRIMARY SCHOOL SINGAPORE 518968,518968,42410.5136828674,39380.9927665386,1.37241870245531,103.962807212116,103.962807212116,Pasir Ris Primary School
0,QIFA PRIMARY SCHOOL,50,WEST COAST AVENUE,QIFA PRIMARY SCHOOL,50 WEST COAST AVENUE QIFA PRIMARY SCHOOL SINGAPORE 128104,128104,19477.8961843997,32838.2868056744,1.31325113867272,103.756743261958,103.756743261958,Qifa Primary School
0,FENGSHAN PRIMARY SCHOOL,307,BEDOK NORTH ROAD,FENGSHAN PRIMARY SCHOOL,307 BEDOK NORTH ROAD FENGSHAN PRIMARY SCHOOL SINGAPORE 469680,469680,38949.9907227494,34668.9245775398,1.32980598760785,103.931710293058,103.931710293058,Fengshan Primary School
0,ANGLO-CHINESE SCHOOL (PRIMARY),50,BARKER ROAD,ANGLO-CHINESE SCHOOL (PRIMARY),50 BARKER ROAD ANGLO-CHINESE SCHOOL (PRIMARY) SINGAPORE 309918,309918,28254.9829477305,33404.2340238672,1.31837054523521,103.835609732354,103.835609732354,Anglo-Chinese School (Primary)
0,XISHAN PRIMARY SCHOOL,8,YISHUN STREET 21,XISHAN PRIMARY SCHOOL,8 YISHUN STREET 21 XISHAN PRIMARY SCHOOL SINGAPORE 768611,768611,28493.7422212623,46131.5536631271,1.43347186925064,103.837755319448,103.837755319448,Xishan Primary School
0,MARYMOUNT CONVENT SCHOOL,20,MARYMOUNT ROAD,MARYMOUNT CONVENT SCHOOL,20 MARYMOUNT ROAD MARYMOUNT CONVENT SCHOOL SINGAPORE 297754,297754,28745.9144793656,35836.4646800403,1.34036676987375,103.840021064426,103.840021064426,Marymount Convent School
0,RADIN MAS PRIMARY SCHOOL,1,BUKIT PURMEI AVENUE,RADIN MAS PRIMARY SCHOOL,1 BUKIT PURMEI AVENUE RADIN MAS PRIMARY SCHOOL SINGAPORE 099840,099840,26983.8685896052,28603.9263991714,1.27495823622634,103.824188270373,103.824188270373,Radin Mas Primary School
0,CHIJ PRIMARY (TOA PAYOH),628,LORONG 1 TOA PAYOH,CHIJ PRIMARY (TOA PAYOH),628 LORONG 1 TOA PAYOH CHIJ PRIMARY (TOA PAYOH) SINGAPORE 319765,319765,28949.1537291808,34994.5345916729,1.33275264711587,103.841847263786,103.841847263786,CHIJ Primary (Toa Payoh)
0,NORTH SPRING PRIMARY SCHOOL,1,RIVERVALE STREET,NORTH SPRING PRIMARY SCHOOL,1 RIVERVALE STREET NORTH SPRING PRIMARY SCHOOL SINGAPORE 545088,545088,35777.2005732814,40999.8398870248,1.38706146494859,103.903202683028,103.903202683028,North Spring Primary School
0,PEIYING PRIMARY SCHOOL,651,YISHUN RING ROAD,PEIYING PRIMARY SCHOOL,651 YISHUN RING ROAD PEIYING PRIMARY SCHOOL SINGAPORE 768687,768687,27677.1059972411,44335.9849220216,1.41723339695904,103.830417090698,103.830417090698,Peiying Primary School
0,RULANG PRIMARY SCHOOL,6,JURONG WEST STREET 52,RULANG PRIMARY SCHOOL,6 JURONG WEST STREET 52 RULANG PRIMARY SCHOOL SINGAPORE 649295,649295,15217.2735802168,36541.3390983045,1.34673868889096,103.718457955487,103.718457955487,Rulang Primary School
0,HOUGANG PRIMARY SCHOOL,1,HOUGANG STREET 93,HOUGANG PRIMARY SCHOOL,1 HOUGANG STREET 93 HOUGANG PRIMARY SCHOOL SINGAPORE 534238,534238,33284.6782123018,39929.5216681417,1.37738245231461,103.880805274557,103.880805274557,Hougang Primary School
0,MONTFORT JUNIOR SCHOOL,52,HOUGANG AVENUE 8,MONTFORT JUNIOR SCHOOL,52 HOUGANG AVENUE 8 MONTFORT JUNIOR SCHOOL SINGAPORE 538786,538786,34230.9110763939,39536.1151842475,1.37382444075979,103.889307782925,103.889307782925,Montfort Junior School
0,INNOVA PRIMARY SCHOOL,80,WOODLANDS DRIVE 17,INNOVA PRIMARY SCHOOL,80 WOODLANDS DRIVE 17 INNOVA PRIMARY SCHOOL SINGAPORE 737888,737888,23246.8971469188,45633.4723797198,1.42896700684852,103.790607539185,103.790607539185,Innova Primary School
0,PAYA LEBAR METHODIST GIRLS' SCHOOL (PRIMARY),298,LORONG AH SOO,PAYA LEBAR METHODIST GIRLS' SCHOOL (PRIMARY),298 LORONG AH SOO PAYA LEBAR METHODIST GIRLS' SCHOOL (PRIMARY) SINGAPORE 536741,536741,33748.3760953182,36843.4187818952,1.34947276268396,103.884971343143,103.884971343143,Methodist Girls' School (Primary)
0,RIVERVALE PRIMARY SCHOOL,80,RIVERVALE DRIVE,RIVERVALE PRIMARY SCHOOL,80 RIVERVALE DRIVE RIVERVALE PRIMARY SCHOOL SINGAPORE 545092,545092,35928.1770641869,41701.8312798403,1.39340997767762,103.904559511997,103.904559511997,Rivervale Primary School
0,ANGSANA PRIMARY SCHOOL,3,TAMPINES STREET 22,ANGSANA PRIMARY SCHOOL,3 TAMPINES STREET 22 ANGSANA PRIMARY SCHOOL SINGAPORE 529366,529366,41186.5743079996,36741.9621954821,1.34855287558648,103.951808105552,103.951808105552,Angsana Primary School
1,ANGSANA PRIMARY SCHOOL (U/C),51,TAMPINES STREET 61,ANGSANA PRIMARY SCHOOL (U/C),51 TAMPINES STREET 61 ANGSANA PRIMARY SCHOOL (U/C) SINGAPORE 528565,528565,39754.5222957945,38406.3864220977,1.36360590588314,103.9389409004,103.9389409004,Angsana Primary School
0,GUANGYANG PRIMARY SCHOOL,6,BISHAN STREET 12,GUANGYANG PRIMARY SCHOOL,6 BISHAN STREET 12 GUANGYANG PRIMARY SCHOOL SINGAPORE 579806,579806,29795.6102129035,36425.0979033671,1.34569011530238,103.849453239895,103.849453239895,Guangyang Primary School
0,NAN HUA PRIMARY SCHOOL,30,JALAN LEMPENG,NAN HUA PRIMARY SCHOOL,30 JALAN LEMPENG NAN HUA PRIMARY SCHOOL SINGAPORE 128806,128806,19962.2298404071,33496.2443055101,1.31920159956387,103.761095065761,103.761095065761,Nan Hua Primary School
0,KONG HWA SCHOOL,350,GUILLEMARD ROAD,KONG HWA SCHOOL,350 GUILLEMARD ROAD KONG HWA SCHOOL SINGAPORE 399772,399772,34124.7036575247,32588.943696009,1.31099674009193,103.888352029067,103.888352029067,Kong Hwa School
0,NGEE ANN PRIMARY SCHOOL,344,MARINE TERRACE,NGEE ANN PRIMARY SCHOOL,344 MARINE TERRACE NGEE ANN PRIMARY SCHOOL SINGAPORE 449149,449149,37364.5041869488,31984.0027186833,1.30552505910497,103.917463017497,103.917463017497,Ngee Ann Primary School
0,PUNGGOL GREEN PRIMARY SCHOOL,98,PUNGGOL WALK,PUNGGOL GREEN PRIMARY SCHOOL,98 PUNGGOL WALK PUNGGOL GREEN PRIMARY SCHOOL SINGAPORE 828772,828772,35287.340952022,42637.5237120874,1.40187220643293,103.898801330302,103.898801330302,Punggol Green Primary School
0,WELLINGTON PRIMARY SCHOOL,10,WELLINGTON CIRCLE,WELLINGTON PRIMARY SCHOOL,10 WELLINGTON CIRCLE WELLINGTON PRIMARY SCHOOL SINGAPORE 757702,757702,26774.2225156762,48171.4790451899,1.45192019155475,103.822303719094,103.822303719094,Wellington Primary School
0,NORTHLAND PRIMARY SCHOOL,15,YISHUN AVENUE 4,NORTHLAND PRIMARY SCHOOL,15 YISHUN AVENUE 4 NORTHLAND PRIMARY SCHOOL SINGAPORE 769026,769026,28846.8654693784,44749.1496797893,1.42096989918951,103.840928424929,103.840928424929,Northland Primary School
0,CEDAR PRIMARY SCHOOL,15,CEDAR AVENUE,CEDAR PRIMARY SCHOOL,15 CEDAR AVENUE CEDAR PRIMARY SCHOOL SINGAPORE 349700,349700,32707.8191135684,35308.1476785857,1.3355885014312,103.87562104944,103.87562104944,Cedar Primary School
0,FUHUA PRIMARY SCHOOL,65,JURONG EAST STREET 13,FUHUA PRIMARY SCHOOL,65 JURONG EAST STREET 13 FUHUA PRIMARY SCHOOL SINGAPORE 609647,609647,17181.0134181511,35409.5467255618,1.33650394789627,103.736103745748,103.736103745748,Fuhua Primary School
0,CORPORATION PRIMARY SCHOOL,31,JURONG WEST STREET 24,CORPORATION PRIMARY SCHOOL,31 JURONG WEST STREET 24 CORPORATION PRIMARY SCHOOL SINGAPORE 648347,648347,14008.2263862854,37012.3505131546,1.35099779872539,103.707593724342,103.707593724342,Corporation Primary School
0,NEW TOWN PRIMARY SCHOOL,300,TANGLIN HALT ROAD,NEW TOWN PRIMARY SCHOOL,300 TANGLIN HALT ROAD NEW TOWN PRIMARY SCHOOL SINGAPORE 148812,148812,24303.3274160307,31333.3311160132,1.2996418106417,103.800102318609,103.800102318609,New Town Primary School
0,BEACON PRIMARY SCHOOL,36,BUKIT PANJANG RING ROAD,BEACON PRIMARY SCHOOL,36 BUKIT PANJANG RING ROAD BEACON PRIMARY SCHOOL SINGAPORE 679944,679944,21357.64699852,40655.688190354,1.38394936211823,103.773632022975,103.773632022975,Beacon Primary School
0,YANGZHENG PRIMARY SCHOOL,15,SERANGOON AVENUE 3,YANGZHENG PRIMARY SCHOOL,15 SERANGOON AVENUE 3 YANGZHENG PRIMARY SCHOOL SINGAPORE 556108,556108,31925.931594234,36751.9403087255,1.34864575840923,103.868595527042,103.868595527042,Yangzheng Primary School
0,CHUA CHU KANG PRIMARY SCHOOL,20,CHOA CHU KANG AVENUE 2,CHUA CHU KANG PRIMARY SCHOOL,20 CHOA CHU KANG AVENUE 2 CHUA CHU KANG PRIMARY SCHOOL SINGAPORE 689905,689905,17818.7829598142,39971.2903354876,1.37775890093367,103.741832917421,103.741832917421,Chua Chu Kang Primary School
0,EVERGREEN PRIMARY SCHOOL,31,WOODLANDS CIRCLE,EVERGREEN PRIMARY SCHOOL,31 WOODLANDS CIRCLE EVERGREEN PRIMARY SCHOOL SINGAPORE 738908,738908,23688.7552570887,47312.692020528,1.44415332824735,103.794577787757,103.794577787757,Evergreen Primary School
0,PUNGGOL COVE PRIMARY SCHOOL,52,SUMANG WALK,PUNGGOL COVE PRIMARY SCHOOL,52 SUMANG WALK PUNGGOL COVE PRIMARY SCHOOL SINGAPORE 828674,828674,35287.6769569088,43713.0551068783,1.41159891873961,103.898804620697,103.898804620697,Punggol Cove Primary School
0,NORTHOAKS PRIMARY SCHOOL,61,SEMBAWANG DRIVE,NORTHOAKS PRIMARY SCHOOL,61 SEMBAWANG DRIVE NORTHOAKS PRIMARY SCHOOL SINGAPORE 757622,757622,25872.0767556792,48689.8195981402,1.45660782030102,103.814196981329,103.814196981329,Northoaks Primary School
0,RAFFLES GIRLS' PRIMARY SCHOOL,21,HILLCREST ROAD,RAFFLES GIRLS' PRIMARY SCHOOL,21 HILLCREST ROAD RAFFLES GIRLS' PRIMARY SCHOOL SINGAPORE 289072,289072,25009.0146507286,34624.3017604016,1.3294042600012,103.806442915912,103.806442915912,Raffles Girls' Primary School
0,JING SHAN PRIMARY SCHOOL,5,ANG MO KIO STREET 52,JING SHAN PRIMARY SCHOOL,5 ANG MO KIO STREET 52 JING SHAN PRIMARY SCHOOL SINGAPORE 569228,569228,30093.7277568905,39360.0670565329,1.37223290983498,103.852132214306,103.852132214306,Jing Shan Primary School
0,BUKIT PANJANG PRIMARY SCHOOL,109,CASHEW ROAD,BUKIT PANJANG PRIMARY SCHOOL,109 CASHEW ROAD BUKIT PANJANG PRIMARY SCHOOL SINGAPORE 679676,679676,20883.8530479269,39513.7297099214,1.37362179302436,103.769374904025,103.769374904025,Bukit Panjang Primary School
0,BUKIT VIEW PRIMARY SCHOOL,18,BUKIT BATOK STREET 21,BUKIT VIEW PRIMARY SCHOOL,18 BUKIT BATOK STREET 21 BUKIT VIEW PRIMARY SCHOOL SINGAPORE 659634,659634,19135.5884738322,36444.0823157039,1.34586054788695,103.75366641455,103.75366641455,Bukit View Primary School
0,TOWNSVILLE PRIMARY SCHOOL,3,ANG MO KIO AVENUE 10,TOWNSVILLE PRIMARY SCHOOL,3 ANG MO KIO AVENUE 10 TOWNSVILLE PRIMARY SCHOOL SINGAPORE 569730,569730,30282.242298523,38011.0245356523,1.36003263746623,103.853826048327,103.853826048327,Townsville Primary School
0,PEI TONG PRIMARY SCHOOL,15,CLEMENTI AVENUE 5,PEI TONG PRIMARY SCHOOL,15 CLEMENTI AVENUE 5 PEI TONG PRIMARY SCHOOL SINGAPORE 129857,129857,20686.135525845,33164.0846931841,1.31619784883042,103.767599807694,103.767599807694,Pei Tong Primary School
0,CLEMENTI PRIMARY SCHOOL,8,CLEMENTI AVENUE 3,CLEMENTI PRIMARY SCHOOL,8 CLEMENTI AVENUE 3 CLEMENTI PRIMARY SCHOOL SINGAPORE 129903,129903,20190.2983410172,33038.6364921555,1.31506321827875,103.763144493687,103.763144493687,Clementi Primary School
0,PUNGGOL VIEW PRIMARY SCHOOL,9,PUNGGOL PLACE,PUNGGOL VIEW PRIMARY SCHOOL,9 PUNGGOL PLACE PUNGGOL VIEW PRIMARY SCHOOL SINGAPORE 828845,828845,35994.5599585725,42999.5250743832,1.40514582647962,103.905156371376,103.905156371376,Punggol View Primary School
0,RIVER VALLEY PRIMARY SCHOOL,2,RIVER VALLEY GREEN,RIVER VALLEY PRIMARY SCHOOL,2 RIVER VALLEY GREEN RIVER VALLEY PRIMARY SCHOOL SINGAPORE 237993,237993,28277.8483209386,30734.1542524323,1.2942232846169,103.835815165829,103.835815165829,River Valley Primary School
0,DE LA SALLE SCHOOL,11,CHOA CHU KANG STREET 52,DE LA SALLE SCHOOL,11 CHOA CHU KANG STREET 52 DE LA SALLE SCHOOL SINGAPORE 689285,689285,17971.195454672,41845.4133931287,1.3947078296399,103.743201812831,103.743201812831,De La Salle School
0,CANOSSA CATHOLIC PRIMARY SCHOOL,1,SALLIM ROAD,CANOSSA CATHOLIC PRIMARY SCHOOL,1 SALLIM ROAD CANOSSA CATHOLIC PRIMARY SCHOOL SINGAPORE 387621,387621,33443.1189393327,34319.1509661097,1.32664424544839,103.882227964852,103.882227964852,Canossa Catholic Primary School
0,HONG WEN SCHOOL,30,TOWNER ROAD,HONG WEN SCHOOL,30 TOWNER ROAD HONG WEN SCHOOL SINGAPORE 327829,327829,30705.4493981982,33779.0355954058,1.32175999964553,103.857628468881,103.857628468881,Hong Wen School
0,WEST SPRING PRIMARY SCHOOL,60,BUKIT PANJANG RING ROAD,WEST SPRING PRIMARY SCHOOL,60 BUKIT PANJANG RING ROAD WEST SPRING PRIMARY SCHOOL SINGAPORE 679946,679946,20530.0971989501,41262.9989389312,1.38944145898943,103.766195711835,103.766195711835,West Spring Primary School
0,AHMAD IBRAHIM PRIMARY SCHOOL,10,YISHUN STREET 11,AHMAD IBRAHIM PRIMARY SCHOOL,10 YISHUN STREET 11 AHMAD IBRAHIM PRIMARY SCHOOL SINGAPORE 768643,768643,27958.1371433474,46096.2627680488,1.43315271543517,103.832942401086,103.832942401086,Ahmad Ibrahim Primary School
0,COMPASSVALE PRIMARY SCHOOL,21,COMPASSVALE STREET,COMPASSVALE PRIMARY SCHOOL,21 COMPASSVALE STREET COMPASSVALE PRIMARY SCHOOL SINGAPORE 545091,545091,35177.2900137762,41816.2900234833,1.39444529636566,103.897812229905,103.897812229905,Compassvale Primary School
0,ANCHOR GREEN PRIMARY SCHOOL,31,ANCHORVALE DRIVE,ANCHOR GREEN PRIMARY SCHOOL,31 ANCHORVALE DRIVE ANCHOR GREEN PRIMARY SCHOOL SINGAPORE 544969,544969,33992.4459471293,41365.6329499111,1.39036998654612,103.887165375933,103.887165375933,Anchor Green Primary School
0,WOODGROVE PRIMARY SCHOOL,2,WOODLANDS DRIVE 14,WOODGROVE PRIMARY SCHOOL,2 WOODLANDS DRIVE 14 WOODGROVE PRIMARY SCHOOL SINGAPORE 738079,738079,23246.5605064044,46090.8542425744,1.43310340168966,103.790604437613,103.790604437613,Woodgrove Primary School
0,SENG KANG PRIMARY SCHOOL,21,COMPASSVALE WALK,SENG KANG PRIMARY SCHOOL,21 COMPASSVALE WALK SENG KANG PRIMARY SCHOOL SINGAPORE 545166,545166,35394.8580362787,41269.1828696113,1.38949740422462,103.899767112047,103.899767112047,Seng Kang Primary School
0,ADMIRALTY PRIMARY SCHOOL,11,WOODLANDS CIRCLE,ADMIRALTY PRIMARY SCHOOL,11 WOODLANDS CIRCLE ADMIRALTY PRIMARY SCHOOL SINGAPORE 738907,738907,24296.6250855923,47144.7700594738,1.4426347903311,103.800040119743,103.800040119743,Admiralty Primary School
0,LAKESIDE PRIMARY SCHOOL,161,CORPORATION WALK,LAKESIDE PRIMARY SCHOOL,161 CORPORATION WALK LAKESIDE PRIMARY SCHOOL SINGAPORE 618310,618310,15176.2291954523,35597.6143301465,1.33820397704287,103.718089546664,103.718089546664,Lakeside Primary School
0,XINGNAN PRIMARY SCHOOL,5,JURONG WEST STREET 91,XINGNAN PRIMARY SCHOOL,5 JURONG WEST STREET 91 XINGNAN PRIMARY SCHOOL SINGAPORE 649036,649036,11822.0669615418,36078.0729275383,1.34254744877694,103.687950252103,103.687950252103,Xingnan Primary School
0,ELIAS PARK PRIMARY SCHOOL,11,PASIR RIS STREET 52,ELIAS PARK PRIMARY SCHOOL,11 PASIR RIS STREET 52 ELIAS PARK PRIMARY SCHOOL SINGAPORE 518866,518866,40443.0313903531,39612.4369040336,1.37451269377776,103.945128117139,103.945128117139,Elias Park Primary School
0,TAMPINES PRIMARY SCHOOL,250,TAMPINES STREET 12,TAMPINES PRIMARY SCHOOL,250 TAMPINES STREET 12 TAMPINES PRIMARY SCHOOL SINGAPORE 529426,529426,40318.132583499,36877.4678724073,1.34977870805929,103.944004684986,103.944004684986,Tampines Primary School
0,CONCORD PRIMARY SCHOOL,3,CHOA CHU KANG AVENUE 4,CONCORD PRIMARY SCHOOL,3 CHOA CHU KANG AVENUE 4 CONCORD PRIMARY SCHOOL SINGAPORE 689814,689814,17194.7500582738,40220.0161901619,1.38000806197242,103.736225440727,103.736225440727,Concord Primary School
0,MARIS STELLA HIGH SCHOOL,25,MOUNT VERNON ROAD,MARIS STELLA HIGH SCHOOL,25 MOUNT VERNON ROAD MARIS STELLA HIGH SCHOOL SINGAPORE 368051,368051,32956.1427672738,35950.1756834127,1.34139473351039,103.877852484979,103.877852484979,Maris Stella High School
1,MARIS STELLA HIGH SCHOOL,80,BARTLEY ROAD,MARIS STELLA HIGH SCHOOL,80 BARTLEY ROAD MARIS STELLA HIGH SCHOOL SINGAPORE 539786,539786,32983.2916958053,36037.4445459433,1.34218395739981,103.87809644863,103.87809644863,Maris Stella High School
0,COMMIT LEARNING SCHOOLHOUSE @ CATHOLIC HIGH SCHOOL (PRIMARY),9,BISHAN STREET 22,COMMIT LEARNING SCHOOLHOUSE @ CATHOLIC HIGH SCHOOL (PRIMARY),9 BISHAN STREET 22 COMMIT LEARNING SCHOOLHOUSE @ CATHOLIC HIGH SCHOOL (PRIMARY) SINGAPORE 579767,579767,29212.1656484166,37386.9490167908,1.35438878373608,103.844210670766,103.844210670766,Catholic High School (Primary)
0,KHENG CHENG SCHOOL,15,LORONG 3 TOA PAYOH,KHENG CHENG SCHOOL,15 LORONG 3 TOA PAYOH KHENG CHENG SCHOOL SINGAPORE 319580,319580,29539.1234353296,35501.5835219584,1.3373381935639,103.847148501824,103.847148501824,Kheng Cheng School
0,GEYLANG METHODIST SCHOOL (PRIMARY),4,GEYLANG EAST CENTRAL,GEYLANG METHODIST SCHOOL (PRIMARY),4 GEYLANG EAST CENTRAL GEYLANG METHODIST SCHOOL (PRIMARY) SINGAPORE 389706,389706,33623.1818729434,33318.1223668903,1.31759126757284,103.883845744916,103.883845744916,Geylang Methodist School (Primary)
0,GAN ENG SENG PRIMARY SCHOOL,100,REDHILL CLOSE,GAN ENG SENG PRIMARY SCHOOL,100 REDHILL CLOSE GAN ENG SENG PRIMARY SCHOOL SINGAPORE 158901,158901,26022.2170935348,29780.10807156,1.28559516494962,103.815547410064,103.815547410064,Gan Eng Seng Primary School
0,JURONG WEST PRIMARY SCHOOL,30,JURONG WEST STREET 61,JURONG WEST PRIMARY SCHOOL,30 JURONG WEST STREET 61 JURONG WEST PRIMARY SCHOOL SINGAPORE 648368,648368,13029.9245329089,35705.1165225543,1.33917519796104,103.698803732244,103.698803732244,Jurong West Primary School
0,OASIS PRIMARY SCHOOL,71,EDGEFIELD PLAINS,OASIS PRIMARY SCHOOL,71 EDGEFIELD PLAINS OASIS PRIMARY SCHOOL SINGAPORE 828716,828716,36658.2990973163,42941.8599344008,1.40462413200793,103.911120600638,103.911120600638,Oasis Primary School
0,YUMIN PRIMARY SCHOOL,3,TAMPINES STREET 21,YUMIN PRIMARY SCHOOL,3 TAMPINES STREET 21 YUMIN PRIMARY SCHOOL SINGAPORE 529393,529393,41036.7447315324,37044.8092632648,1.35129177656981,103.950461927088,103.950461927088,Yumin Primary School
0,EUNOS PRIMARY SCHOOL,95,JALAN EUNOS,EUNOS PRIMARY SCHOOL,95 JALAN EUNOS EUNOS PRIMARY SCHOOL SINGAPORE 419529,419529,35926.3698536828,34079.4906147029,1.32447629876368,103.904541254016,103.904541254016,Eunos Primary School
0,HENRY PARK PRIMARY SCHOOL,1,HOLLAND GROVE ROAD,HENRY PARK PRIMARY SCHOOL,1 HOLLAND GROVE ROAD HENRY PARK PRIMARY SCHOOL SINGAPORE 278790,278790,22544.2873791968,33216.9645254761,1.31667646178347,103.784296227747,103.784296227747,Henry Park Primary School
0,BEDOK GREEN PRIMARY SCHOOL,1,BEDOK SOUTH AVENUE 2,BEDOK GREEN PRIMARY SCHOOL,1 BEDOK SOUTH AVENUE 2 BEDOK GREEN PRIMARY SCHOOL SINGAPORE 469317,469317,39636.5324891713,33965.6893824711,1.32344593287992,103.937878976352,103.937878976352,Bedok Green Primary School
0,GREENRIDGE PRIMARY SCHOOL,11,JELAPANG ROAD,GREENRIDGE PRIMARY SCHOOL,11 JELAPANG ROAD GREENRIDGE PRIMARY SCHOOL SINGAPORE 677744,677744,20708.0073222192,40870.2050487585,1.3858892193692,103.767794469258,103.767794469258,Greenridge Primary School
0,CHIJ OUR LADY QUEEN OF PEACE,4,CHESTNUT DRIVE,CHIJ OUR LADY QUEEN OF PEACE,4 CHESTNUT DRIVE CHIJ OUR LADY QUEEN OF PEACE SINGAPORE 679287,679287,20665.4072236279,38737.7066427004,1.366603668561,103.767412204602,103.767412204602,CHIJ Our Lady Queen of Peace
0,TEMASEK PRIMARY SCHOOL,501,BEDOK SOUTH AVENUE 3,TEMASEK PRIMARY SCHOOL,501 BEDOK SOUTH AVENUE 3 TEMASEK PRIMARY SCHOOL SINGAPORE 469300,469300,40494.7969370941,33331.1191061512,1.31770677551333,103.945590669163,103.945590669163,Temasek Primary School
0,RED SWASTIKA SCHOOL,350,BEDOK NORTH AVENUE 3,RED SWASTIKA SCHOOL,350 BEDOK NORTH AVENUE 3 RED SWASTIKA SCHOOL SINGAPORE 469719,469719,39241.7795945574,35048.9817909673,1.33324297847732,103.934332314404,103.934332314404,Red Swastika School
0,YEW TEE PRIMARY SCHOOL,10,CHOA CHU KANG STREET 64,YEW TEE PRIMARY SCHOOL,10 CHOA CHU KANG STREET 64 YEW TEE PRIMARY SCHOOL SINGAPORE 689100,689100,18837.4775282657,42072.9649468437,1.39676600905037,103.750985967346,103.750985967346,Yew Tee Primary School
0,JUYING PRIMARY SCHOOL,31,JURONG WEST STREET 91,JUYING PRIMARY SCHOOL,31 JURONG WEST STREET 91 JUYING PRIMARY SCHOOL SINGAPORE 649037,649037,11801.9417791683,35688.3182758801,1.33902264667589,103.687769623983,103.687769623983,Juying Primary School
0,CHIJ (KELLOCK),1,BUKIT TERESA ROAD,CHIJ (KELLOCK),1 BUKIT TERESA ROAD CHIJ (KELLOCK) SINGAPORE 099757,099757,27425.6197932558,28611.0557805933,1.275022722964,103.828157564896,103.828157564896,CHIJ (Kellock)
0,YIO CHU KANG PRIMARY SCHOOL,1,HOUGANG STREET 51,YIO CHU KANG PRIMARY SCHOOL,1 HOUGANG STREET 51 YIO CHU KANG PRIMARY SCHOOL SINGAPORE 538720,538720,33823.1315680202,39990.3703038469,1.37793264345276,103.885643682171,103.885643682171,Yio Chu Kang Primary School
0,CHONGZHENG PRIMARY SCHOOL,1,TAMPINES STREET 21,CHONGZHENG PRIMARY SCHOOL,1 TAMPINES STREET 21 CHONGZHENG PRIMARY SCHOOL SINGAPORE 529392,529392,41141.094059418,36980.1959562805,1.35070739237744,103.951399541868,103.951399541868,Chongzheng Primary School
0,JUNYUAN PRIMARY SCHOOL,2,TAMPINES STREET 91,JUNYUAN PRIMARY SCHOOL,2 TAMPINES STREET 91 JUNYUAN PRIMARY SCHOOL SINGAPORE 528906,528906,39785.7393018734,36666.448842736,1.34787054460119,103.939220722335,103.939220722335,Junyuan Primary School
0,BLANGAH RISE PRIMARY SCHOOL,91,TELOK BLANGAH HEIGHTS,BLANGAH RISE PRIMARY SCHOOL,91 TELOK BLANGAH HEIGHTS BLANGAH RISE PRIMARY SCHOOL SINGAPORE 109100,109100,25252.1938973861,28732.4526119996,1.27612047924037,103.808628535239,103.808628535239,Blangah Rise Primary School
0,NANYANG PRIMARY SCHOOL,52,KING'S ROAD,NANYANG PRIMARY SCHOOL,52 KING'S ROAD NANYANG PRIMARY SCHOOL SINGAPORE 268097,268097,25154.4872114761,33678.1373927556,1.32084749904532,103.807750155296,103.807750155296,Nanyang Primary School
1,NANYANG PRIMARY SCHOOL,51,CORONATION ROAD,NANYANG PRIMARY SCHOOL,51 CORONATION ROAD NANYANG PRIMARY SCHOOL SINGAPORE 269460,269460,25011.8029676573,33707.7719583772,1.32111548993736,103.806468059795,103.806468059795,Nanyang Primary School
0,NAVAL BASE PRIMARY SCHOOL,7,YISHUN AVENUE 4,NAVAL BASE PRIMARY SCHOOL,7 YISHUN AVENUE 4 NAVAL BASE PRIMARY SCHOOL SINGAPORE 769028,769028,28609.3447617413,44233.5083953608,1.41630663159387,103.838794077233,103.838794077233,Naval Base Primary School
0,BENDEMEER PRIMARY SCHOOL,91,BENDEMEER ROAD,BENDEMEER PRIMARY SCHOOL,91 BENDEMEER ROAD BENDEMEER PRIMARY SCHOOL SINGAPORE 339948,339948,31570.8074810533,33784.8514976725,1.32181250780475,103.865404167629,103.865404167629,Bendemeer Primary School
0,XINMIN PRIMARY SCHOOL,9,HOUGANG AVENUE 8,XINMIN PRIMARY SCHOOL,9 HOUGANG AVENUE 8 XINMIN PRIMARY SCHOOL SINGAPORE 538784,538784,33537.9261037428,39267.5186706744,1.37139548941931,103.883080767491,103.883080767491,Xinmin Primary School
0,ZHANGDE PRIMARY SCHOOL,51,JALAN MEMBINA,ZHANGDE PRIMARY SCHOOL,51 JALAN MEMBINA ZHANGDE PRIMARY SCHOOL SINGAPORE 169485,169485,27180.1468993286,29627.1075303145,1.28421153335379,103.825951875662,103.825951875662,Zhangde Primary School
0,NORTH VISTA PRIMARY SCHOOL,20,COMPASSVALE LINK,NORTH VISTA PRIMARY SCHOOL,20 COMPASSVALE LINK NORTH VISTA PRIMARY SCHOOL SINGAPORE 544974,544974,34971.4042828046,40531.0861005448,1.38282243016299,103.895961877928,103.895961877928,North Vista Primary School
0,FRONTIER PRIMARY SCHOOL,20,JURONG WEST STREET 61,FRONTIER PRIMARY SCHOOL,20 JURONG WEST STREET 61 FRONTIER PRIMARY SCHOOL SINGAPORE 648200,648200,13129.8467444237,35399.679120725,1.33641298743234,103.69970173931,103.69970173931,Frontier Primary School
0,MARSILING PRIMARY SCHOOL,31,WOODLANDS CENTRE ROAD,MARSILING PRIMARY SCHOOL,31 WOODLANDS CENTRE ROAD MARSILING PRIMARY SCHOOL SINGAPORE 738927,738927,21359.011448958,46172.2397052329,1.43383904037059,103.773643013846,103.773643013846,Marsiling Primary School
0,WHITE SANDS PRIMARY SCHOOL,2,PASIR RIS STREET 11,WHITE SANDS PRIMARY SCHOOL,2 PASIR RIS STREET 11 WHITE SANDS PRIMARY SCHOOL SINGAPORE 519075,519075,42200.4040547684,38622.2636750303,1.36555714668553,103.960918869319,103.960918869319,White Sands Primary School
0,EDGEFIELD PRIMARY SCHOOL,41,EDGEFIELD PLAINS,EDGEFIELD PRIMARY SCHOOL,41 EDGEFIELD PLAINS EDGEFIELD PRIMARY SCHOOL SINGAPORE 828869,828869,36294.0746121518,42440.6405269764,1.40009139510996,103.907847599114,103.907847599114,Edgefield Primary School
0,MAHA BODHI SCHOOL,10,UBI AVENUE 1,MAHA BODHI SCHOOL,10 UBI AVENUE 1 MAHA BODHI SCHOOL SINGAPORE 408931,408931,35565.4979411988,34521.1796176471,1.32847086658384,103.901298737314,103.901298737314,Maha Bodhi School
1,MAHA BODHI SCHOOL,12,UBI AVENUE 1,MAHA BODHI SCHOOL,12 UBI AVENUE 1 MAHA BODHI SCHOOL SINGAPORE 408932,408932,35565.4979109308,34521.1795873791,1.32847086631012,103.901298737042,103.901298737042,Maha Bodhi School
0,HAIG GIRLS' SCHOOL,51,KOON SENG ROAD,HAIG GIRLS' SCHOOL,51 KOON SENG ROAD HAIG GIRLS' SCHOOL SINGAPORE 427072,427072,35744.037941209,32693.6655622385,1.31194344271383,103.902902557195,103.902902557195,Haig Girls' School
1,HAIG GIRLS' SCHOOL (U/C),51,KOON SENG ROAD,HAIG GIRLS' SCHOOL (U/C),51 KOON SENG ROAD HAIG GIRLS' SCHOOL (U/C) SINGAPORE 427072,427072,35798.6867555426,32648.9584790319,1.31153911414311,103.903393592097,103.903393592097,Haig Girls' School
0,SEMBAWANG PRIMARY SCHOOL,10,SEMBAWANG DRIVE,SEMBAWANG PRIMARY SCHOOL,10 SEMBAWANG DRIVE SEMBAWANG PRIMARY SCHOOL SINGAPORE 757715,757715,26633.8508971538,47414.4307650849,1.4450737155262,103.821042374036,103.821042374036,Sembawang Primary School
0,ALEXANDRA PRIMARY SCHOOL,2A,PRINCE CHARLES CRESCENT,ALEXANDRA PRIMARY SCHOOL,2A PRINCE CHARLES CRESCENT ALEXANDRA PRIMARY SCHOOL SINGAPORE 159016,159016,27010.1854815315,30414.7169698272,1.29133439161334,103.824424680531,103.824424680531,Alexandra Primary School
0,AI TONG SCHOOL,100,BRIGHT HILL DRIVE,AI TONG SCHOOL,100 BRIGHT HILL DRIVE AI TONG SCHOOL SINGAPORE 579646,579646,27966.8088298785,38071.9191181567,1.3605834338904,103.833020333986,103.833020333986,Ai Tong School
0,FERNVALE PRIMARY SCHOOL,1,FERNVALE LANE,FERNVALE PRIMARY SCHOOL,1 FERNVALE LANE FERNVALE PRIMARY SCHOOL SINGAPORE 797701,797701,32576.8849010281,41358.1178030372,1.39030227963797,103.874445458032,103.874445458032,Fernvale Primary School
0,SI LING PRIMARY SCHOOL,61,WOODLANDS AVENUE 1,SI LING PRIMARY SCHOOL,61 WOODLANDS AVENUE 1 SI LING PRIMARY SCHOOL SINGAPORE 739067,739067,22738.0565941427,46014.1202728488,1.43240935732525,103.786035065192,103.786035065192,Si Ling Primary School
0,YUHUA PRIMARY SCHOOL,158,JURONG EAST STREET 24,YUHUA PRIMARY SCHOOL,158 JURONG EAST STREET 24 YUHUA PRIMARY SCHOOL SINGAPORE 609558,609558,17737.7130106175,36105.9662365932,1.34280230475033,103.741105772644,103.741105772644,Yuhua Primary School
0,KUO CHUAN PRESBYTERIAN PRIMARY SCHOOL,8,BISHAN STREET 13,KUO CHUAN PRESBYTERIAN PRIMARY SCHOOL,8 BISHAN STREET 13 KUO CHUAN PRESBYTERIAN PRIMARY SCHOOL SINGAPORE 579793,579793,30414.9291181238,36835.1167885177,1.34939813669536,103.855018233311,103.855018233311,Kuo Chuan Presbyterian Primary School
1,KUO CHUAN PRESBYTERIAN PRIMARY SCHOOL,8B,BISHAN STREET 13,KUO CHUAN PRESBYTERIAN PRIMARY SCHOOL,8B BISHAN STREET 13 KUO CHUAN PRESBYTERIAN PRIMARY SCHOOL SINGAPORE 579802,579802,30360.5099772513,36877.6806866005,1.34978307376407,103.854529246517,103.854529246517,Kuo Chuan Presbyterian Primary School
2,KUO CHUAN PRESBYTERIAN PRIMARY SCHOOL (U/C),8,BISHAN STREET 13,KUO CHUAN PRESBYTERIAN PRIMARY SCHOOL (U/C),8 BISHAN STREET 13 KUO CHUAN PRESBYTERIAN PRIMARY SCHOOL (U/C) SINGAPORE 579793,579793,30351.4307323191,36803.7613669485,1.34911457448233,103.854447658027,103.854447658027,Kuo Chuan Presbyterian Primary School
0,BUKIT TIMAH PRIMARY SCHOOL,111,LORONG KISMIS,BUKIT TIMAH PRIMARY SCHOOL,111 LORONG KISMIS BUKIT TIMAH PRIMARY SCHOOL SINGAPORE 598112,598112,20646.5238155546,35521.6266478281,1.33751860013147,103.767243310781,103.767243310781,Bukit Timah Primary School
0,ROSYTH SCHOOL,21,SERANGOON NORTH AVENUE 4,ROSYTH SCHOOL,21 SERANGOON NORTH AVENUE 4 ROSYTH SCHOOL SINGAPORE 555855,555855,32638.8043574626,39432.8315618001,1.37289067499064,103.875001549174,103.875001549174,Rosyth School
0,YISHUN PRIMARY SCHOOL,500,YISHUN RING ROAD,YISHUN PRIMARY SCHOOL,500 YISHUN RING ROAD YISHUN PRIMARY SCHOOL SINGAPORE 768679,768679,28085.526611778,46122.0615023617,1.43338602975674,103.834087115915,103.834087115915,Yishun Primary School
0,CASUARINA PRIMARY SCHOOL,30,PASIR RIS STREET 41,CASUARINA PRIMARY SCHOOL,30 PASIR RIS STREET 41 CASUARINA PRIMARY SCHOOL SINGAPORE 518935,518935,41766.4977676729,39385.5958609674,1.37246063927999,103.957020286115,103.957020286115,Casuarina Primary School
